{
  "type": "FeatureCollection",
  "features": [
    {
      "type": "Feature",
      "properties": {
        "id": "behobia-san-sebastian-20k-2026-route",
        "name": "Provisional Behobia-San Sebastian 20K 2026 route"
      },
      "geometry": {
        "type": "LineString",
        "coordinates": [
          [-1.771914, 43.341624],
          [-1.771999, 43.341618],
          [-1.772656, 43.341628],
          [-1.773353, 43.341656],
          [-1.77413, 43.341681],
          [-1.774433, 43.341669],
          [-1.774733, 43.34164],
          [-1.77503, 43.341594],
          [-1.775321, 43.341532],
          [-1.775605, 43.341455],
          [-1.77588, 43.341362],
          [-1.776145, 43.341254],
          [-1.77683, 43.340976],
          [-1.777213, 43.340829],
          [-1.777245, 43.340817],
          [-1.777279, 43.340808],
          [-1.777313, 43.3408],
          [-1.777348, 43.340794],
          [-1.777383, 43.340789],
          [-1.779726, 43.340627],
          [-1.779795, 43.34062],
          [-1.779863, 43.340608],
          [-1.77993, 43.340593],
          [-1.779994, 43.340574],
          [-1.780056, 43.34055],
          [-1.780118, 43.340522],
          [-1.780177, 43.340491],
          [-1.780233, 43.340456],
          [-1.780285, 43.340419],
          [-1.780333, 43.340379],
          [-1.780377, 43.340336],
          [-1.780387, 43.340325],
          [-1.780396, 43.340313],
          [-1.780403, 43.340301],
          [-1.780409, 43.340289],
          [-1.780414, 43.340276],
          [-1.780417, 43.340263],
          [-1.780419, 43.340249],
          [-1.78042, 43.340236],
          [-1.780418, 43.340044],
          [-1.780411, 43.33992],
          [-1.78041, 43.339914],
          [-1.780411, 43.339907],
          [-1.780412, 43.339901],
          [-1.780414, 43.339894],
          [-1.780417, 43.339888],
          [-1.78042, 43.339882],
          [-1.780424, 43.339876],
          [-1.780429, 43.339871],
          [-1.780434, 43.339866],
          [-1.78044, 43.339861],
          [-1.780446, 43.339856],
          [-1.780453, 43.339852],
          [-1.780571, 43.339791],
          [-1.780695, 43.339736],
          [-1.780823, 43.339688],
          [-1.780982, 43.339659],
          [-1.781227, 43.339636],
          [-1.781487, 43.339618],
          [-1.782401, 43.339551],
          [-1.784449, 43.339424],
          [-1.786243, 43.3393],
          [-1.786807, 43.339269],
          [-1.787205, 43.339261],
          [-1.787601, 43.339264],
          [-1.78882, 43.339339],
          [-1.789098, 43.339358],
          [-1.789363, 43.339396],
          [-1.790684, 43.339645],
          [-1.791684, 43.339846],
          [-1.79355, 43.34021],
          [-1.794204, 43.340337],
          [-1.794243, 43.340344],
          [-1.794271, 43.340345],
          [-1.794299, 43.340343],
          [-1.794324, 43.340337],
          [-1.794348, 43.340329],
          [-1.79437, 43.340318],
          [-1.794388, 43.340304],
          [-1.794403, 43.340289],
          [-1.794415, 43.340271],
          [-1.794472, 43.340161],
          [-1.794719, 43.339579],
          [-1.79491, 43.339068],
          [-1.795146, 43.338429],
          [-1.795555, 43.337328],
          [-1.795786, 43.336711],
          [-1.795801, 43.336676],
          [-1.795826, 43.336631],
          [-1.795859, 43.336588],
          [-1.795899, 43.336549],
          [-1.795987, 43.336503],
          [-1.796165, 43.336424],
          [-1.796199, 43.336414],
          [-1.796234, 43.336406],
          [-1.796256, 43.336403],
          [-1.796287, 43.336401],
          [-1.796319, 43.336401],
          [-1.796351, 43.336402],
          [-1.796438, 43.336406],
          [-1.796526, 43.336404],
          [-1.796612, 43.336397],
          [-1.796698, 43.336385],
          [-1.796782, 43.336367],
          [-1.796864, 43.336345],
          [-1.796943, 43.336318],
          [-1.797018, 43.336287],
          [-1.79809, 43.335764],
          [-1.798133, 43.335747],
          [-1.798155, 43.335742],
          [-1.798178, 43.335739],
          [-1.798202, 43.335739],
          [-1.798324, 43.335739],
          [-1.798352, 43.335735],
          [-1.79838, 43.335728],
          [-1.798405, 43.335718],
          [-1.798428, 43.335705],
          [-1.798447, 43.335689],
          [-1.798462, 43.335671],
          [-1.798471, 43.335651],
          [-1.798478, 43.335631],
          [-1.798487, 43.335601],
          [-1.798498, 43.335572],
          [-1.798505, 43.335557],
          [-1.798514, 43.335543],
          [-1.798527, 43.335531],
          [-1.798542, 43.33552],
          [-1.798885, 43.335357],
          [-1.800008, 43.334819],
          [-1.80062, 43.334515],
          [-1.800771, 43.334434],
          [-1.801014, 43.334298],
          [-1.80152, 43.334],
          [-1.801943, 43.33375],
          [-1.802196, 43.333608],
          [-1.802412, 43.333498],
          [-1.802631, 43.333396],
          [-1.80275, 43.333353],
          [-1.802873, 43.333315],
          [-1.803823, 43.333087],
          [-1.805559, 43.332645],
          [-1.80604, 43.332517],
          [-1.806127, 43.332494],
          [-1.806217, 43.332477],
          [-1.806308, 43.332466],
          [-1.8064, 43.33246],
          [-1.806591, 43.33246],
          [-1.806616, 43.33246],
          [-1.806642, 43.332458],
          [-1.806667, 43.332455],
          [-1.806692, 43.33245],
          [-1.806716, 43.332443],
          [-1.806739, 43.332435],
          [-1.806761, 43.332426],
          [-1.806782, 43.332415],
          [-1.806801, 43.332403],
          [-1.80682, 43.33239],
          [-1.806836, 43.332376],
          [-1.806892, 43.332327],
          [-1.806952, 43.332281],
          [-1.807016, 43.332239],
          [-1.807063, 43.332212],
          [-1.807112, 43.332187],
          [-1.807164, 43.332165],
          [-1.807217, 43.332146],
          [-1.80783, 43.331965],
          [-1.808545, 43.331764],
          [-1.809071, 43.331603],
          [-1.809369, 43.331541],
          [-1.809643, 43.331505],
          [-1.809923, 43.331475],
          [-1.810617, 43.331413],
          [-1.811291, 43.33135],
          [-1.812005, 43.331271],
          [-1.812345, 43.331214],
          [-1.812695, 43.331155],
          [-1.813058, 43.331135],
          [-1.81337, 43.3311],
          [-1.81367, 43.331112],
          [-1.81404, 43.33111],
          [-1.814348, 43.331106],
          [-1.814377, 43.33111],
          [-1.814404, 43.331116],
          [-1.814431, 43.331123],
          [-1.814458, 43.331132],
          [-1.814483, 43.331142],
          [-1.814507, 43.331154],
          [-1.814529, 43.331167],
          [-1.81455, 43.331182],
          [-1.814569, 43.331198],
          [-1.814587, 43.331214],
          [-1.814602, 43.331232],
          [-1.814616, 43.331251],
          [-1.814627, 43.33127],
          [-1.814636, 43.33129],
          [-1.814643, 43.331311],
          [-1.814675, 43.331406],
          [-1.814718, 43.331499],
          [-1.814734, 43.331526],
          [-1.814753, 43.331552],
          [-1.814774, 43.331577],
          [-1.814797, 43.331601],
          [-1.815221, 43.332],
          [-1.815252, 43.332034],
          [-1.815274, 43.332072],
          [-1.815286, 43.332111],
          [-1.815293, 43.332167],
          [-1.815283, 43.332237],
          [-1.81527, 43.3323],
          [-1.815257, 43.332379],
          [-1.815252, 43.332458],
          [-1.815253, 43.332477],
          [-1.815256, 43.332497],
          [-1.815261, 43.332516],
          [-1.815268, 43.332535],
          [-1.815278, 43.332554],
          [-1.815289, 43.332572],
          [-1.815303, 43.332589],
          [-1.815318, 43.332605],
          [-1.815335, 43.33262],
          [-1.815361, 43.33264],
          [-1.815388, 43.332657],
          [-1.816242, 43.333078],
          [-1.816272, 43.333091],
          [-1.816304, 43.333103],
          [-1.816338, 43.333113],
          [-1.816372, 43.333121],
          [-1.816407, 43.333128],
          [-1.816442, 43.333132],
          [-1.816478, 43.333134],
          [-1.816514, 43.333133],
          [-1.81655, 43.333131],
          [-1.816586, 43.333127],
          [-1.816748, 43.333097],
          [-1.816906, 43.333058],
          [-1.816937, 43.333048],
          [-1.816966, 43.333037],
          [-1.816994, 43.333024],
          [-1.817021, 43.33301],
          [-1.817045, 43.332994],
          [-1.817069, 43.332977],
          [-1.81709, 43.332958],
          [-1.817318, 43.33271],
          [-1.817742, 43.332228],
          [-1.817956, 43.331964],
          [-1.818121, 43.331787],
          [-1.818305, 43.331621],
          [-1.818506, 43.331465],
          [-1.818722, 43.33132],
          [-1.818953, 43.331189],
          [-1.819197, 43.33107],
          [-1.819453, 43.330966],
          [-1.819769, 43.330871],
          [-1.820116, 43.330775],
          [-1.820177, 43.330755],
          [-1.820236, 43.330733],
          [-1.820292, 43.330706],
          [-1.820345, 43.330677],
          [-1.820394, 43.330644],
          [-1.82044, 43.330609],
          [-1.82047, 43.330585],
          [-1.820502, 43.330563],
          [-1.820537, 43.330544],
          [-1.820575, 43.330526],
          [-1.820614, 43.330511],
          [-1.82068, 43.330496],
          [-1.820747, 43.330495],
          [-1.820833, 43.330498],
          [-1.821042, 43.330514],
          [-1.821088, 43.330518],
          [-1.821135, 43.330519],
          [-1.821181, 43.330518],
          [-1.821228, 43.330514],
          [-1.821273, 43.330507],
          [-1.821318, 43.330498],
          [-1.822937, 43.330117],
          [-1.823671, 43.32995],
          [-1.82389, 43.329896],
          [-1.823983, 43.329861],
          [-1.824069, 43.329818],
          [-1.824146, 43.329767],
          [-1.824213, 43.329709],
          [-1.824253, 43.329682],
          [-1.824297, 43.32966],
          [-1.824345, 43.329643],
          [-1.824397, 43.329631],
          [-1.82445, 43.329626],
          [-1.824504, 43.329626],
          [-1.824594, 43.329639],
          [-1.824738, 43.329658],
          [-1.824883, 43.329661],
          [-1.825027, 43.329648],
          [-1.825293, 43.32961],
          [-1.826601, 43.329322],
          [-1.827918, 43.329011],
          [-1.828932, 43.328782],
          [-1.829395, 43.328693],
          [-1.829756, 43.328634],
          [-1.830205, 43.328592],
          [-1.830484, 43.328581],
          [-1.830818, 43.328578],
          [-1.831207, 43.328581],
          [-1.831605, 43.328606],
          [-1.832237, 43.328678],
          [-1.832856, 43.328774],
          [-1.834223, 43.328989],
          [-1.835755, 43.32925],
          [-1.836076, 43.329328],
          [-1.836444, 43.32943],
          [-1.836801, 43.329553],
          [-1.837144, 43.329694],
          [-1.837473, 43.329853],
          [-1.83848, 43.330328],
          [-1.839071, 43.330615],
          [-1.839451, 43.330825],
          [-1.839835, 43.331064],
          [-1.840024, 43.331178],
          [-1.840193, 43.331278],
          [-1.840311, 43.331342],
          [-1.840434, 43.331399],
          [-1.840563, 43.33145],
          [-1.840696, 43.331495],
          [-1.840833, 43.331532],
          [-1.841023, 43.331572],
          [-1.841217, 43.331601],
          [-1.841414, 43.331618],
          [-1.841553, 43.331622],
          [-1.841693, 43.331618],
          [-1.841831, 43.331606],
          [-1.842176, 43.331566],
          [-1.842579, 43.331508],
          [-1.84279, 43.331486],
          [-1.843002, 43.331477],
          [-1.843215, 43.33148],
          [-1.843772, 43.331553],
          [-1.844899, 43.331752],
          [-1.845516, 43.331847],
          [-1.845547, 43.331852],
          [-1.845579, 43.331857],
          [-1.845611, 43.331861],
          [-1.845643, 43.331865],
          [-1.845675, 43.33187],
          [-1.845707, 43.331874],
          [-1.845739, 43.331878],
          [-1.845771, 43.331882],
          [-1.845803, 43.331885],
          [-1.845836, 43.331889],
          [-1.845868, 43.331892],
          [-1.8459, 43.331895],
          [-1.845932, 43.331898],
          [-1.845965, 43.331901],
          [-1.846081, 43.331906],
          [-1.846197, 43.331904],
          [-1.846312, 43.331897],
          [-1.846427, 43.331884],
          [-1.846583, 43.331858],
          [-1.846736, 43.331822],
          [-1.846884, 43.331778],
          [-1.847027, 43.331725],
          [-1.847164, 43.331664],
          [-1.847294, 43.331595],
          [-1.847415, 43.331519],
          [-1.847579, 43.331377],
          [-1.847728, 43.331227],
          [-1.847861, 43.331069],
          [-1.848105, 43.330752],
          [-1.84824, 43.330581],
          [-1.848325, 43.330484],
          [-1.848421, 43.330392],
          [-1.848527, 43.330307],
          [-1.848642, 43.330228],
          [-1.848767, 43.330156],
          [-1.848898, 43.330093],
          [-1.849037, 43.330037],
          [-1.849182, 43.329991],
          [-1.849313, 43.329956],
          [-1.849446, 43.329928],
          [-1.849588, 43.329903],
          [-1.849732, 43.329885],
          [-1.849877, 43.329873],
          [-1.850714, 43.329805],
          [-1.850775, 43.329797],
          [-1.850835, 43.329785],
          [-1.850894, 43.329771],
          [-1.850951, 43.329753],
          [-1.851005, 43.329731],
          [-1.851058, 43.329707],
          [-1.851108, 43.32968],
          [-1.851238, 43.329592],
          [-1.851733, 43.32934],
          [-1.852229, 43.329051],
          [-1.85309, 43.328587],
          [-1.854179, 43.328011],
          [-1.854849, 43.327663],
          [-1.855115, 43.327521],
          [-1.855433, 43.327362],
          [-1.855799, 43.327215],
          [-1.85638, 43.326993],
          [-1.857205, 43.326682],
          [-1.857664, 43.326518],
          [-1.857841, 43.32645],
          [-1.858011, 43.326373],
          [-1.858163, 43.326286],
          [-1.858317, 43.32619],
          [-1.85848, 43.32608],
          [-1.85941, 43.325456],
          [-1.860819, 43.324516],
          [-1.861893, 43.323811],
          [-1.862792, 43.323218],
          [-1.863933, 43.322467],
          [-1.864626, 43.322024],
          [-1.865768, 43.321298],
          [-1.866676, 43.320733],
          [-1.867241, 43.320369],
          [-1.867722, 43.320017],
          [-1.868008, 43.319781],
          [-1.868409, 43.31941],
          [-1.868687, 43.319152],
          [-1.868959, 43.318903],
          [-1.869192, 43.318711],
          [-1.869375, 43.318575],
          [-1.869573, 43.31845],
          [-1.869785, 43.318337],
          [-1.870008, 43.318237],
          [-1.870431, 43.318079],
          [-1.870659, 43.318008],
          [-1.870893, 43.317948],
          [-1.871855, 43.317736],
          [-1.872505, 43.317603],
          [-1.872999, 43.3175],
          [-1.873077, 43.317482],
          [-1.873152, 43.317461],
          [-1.873226, 43.317436],
          [-1.873372, 43.31738],
          [-1.873511, 43.317315],
          [-1.873642, 43.317243],
          [-1.873765, 43.317163],
          [-1.873826, 43.317117],
          [-1.873883, 43.317069],
          [-1.873934, 43.317017],
          [-1.873981, 43.316963],
          [-1.874152, 43.316728],
          [-1.874514, 43.316188],
          [-1.875025, 43.315405],
          [-1.875446, 43.314741],
          [-1.875621, 43.314543],
          [-1.875816, 43.314354],
          [-1.876029, 43.314176],
          [-1.876807, 43.313637],
          [-1.878003, 43.312775],
          [-1.878807, 43.312185],
          [-1.879473, 43.311714],
          [-1.879776, 43.311535],
          [-1.88004, 43.311409],
          [-1.880316, 43.311291],
          [-1.880334, 43.311282],
          [-1.880351, 43.311273],
          [-1.880367, 43.311262],
          [-1.880381, 43.311251],
          [-1.880395, 43.311239],
          [-1.880406, 43.311226],
          [-1.880417, 43.311212],
          [-1.880426, 43.311198],
          [-1.880433, 43.311184],
          [-1.880439, 43.311169],
          [-1.880451, 43.311121],
          [-1.88046, 43.311072],
          [-1.880465, 43.311023],
          [-1.88046, 43.310803],
          [-1.88046, 43.310676],
          [-1.880461, 43.31066],
          [-1.880464, 43.310644],
          [-1.880469, 43.310628],
          [-1.880475, 43.310612],
          [-1.880484, 43.310597],
          [-1.880494, 43.310583],
          [-1.880506, 43.310569],
          [-1.880519, 43.310556],
          [-1.880534, 43.310544],
          [-1.88055, 43.310533],
          [-1.880567, 43.310522],
          [-1.880586, 43.310513],
          [-1.880605, 43.310506],
          [-1.880648, 43.310491],
          [-1.880692, 43.310479],
          [-1.880738, 43.31047],
          [-1.880784, 43.310463],
          [-1.881126, 43.310407],
          [-1.881475, 43.310374],
          [-1.88194, 43.310366],
          [-1.882314, 43.310386],
          [-1.882756, 43.310412],
          [-1.883154, 43.310432],
          [-1.883372, 43.310449],
          [-1.883424, 43.310454],
          [-1.883476, 43.310463],
          [-1.883526, 43.310474],
          [-1.883576, 43.310487],
          [-1.883663, 43.310511],
          [-1.883751, 43.31053],
          [-1.883842, 43.310545],
          [-1.883933, 43.310555],
          [-1.884073, 43.31057],
          [-1.884529, 43.310675],
          [-1.884784, 43.310727],
          [-1.885007, 43.310753],
          [-1.885336, 43.310779],
          [-1.885821, 43.310775],
          [-1.886538, 43.310741],
          [-1.887401, 43.310691],
          [-1.887993, 43.310647],
          [-1.888523, 43.310599],
          [-1.888869, 43.31058],
          [-1.889473, 43.310547],
          [-1.889493, 43.310546],
          [-1.889513, 43.310547],
          [-1.889533, 43.310549],
          [-1.889553, 43.310552],
          [-1.889572, 43.310556],
          [-1.889591, 43.310562],
          [-1.889608, 43.310569],
          [-1.889626, 43.310576],
          [-1.889682, 43.310602],
          [-1.889741, 43.310624],
          [-1.889757, 43.310629],
          [-1.889774, 43.310633],
          [-1.889791, 43.310636],
          [-1.889808, 43.310638],
          [-1.889826, 43.310639],
          [-1.889843, 43.310639],
          [-1.889861, 43.310637],
          [-1.889878, 43.310635],
          [-1.889895, 43.310631],
          [-1.889912, 43.310627],
          [-1.889939, 43.310617],
          [-1.889966, 43.310606],
          [-1.889992, 43.310594],
          [-1.890016, 43.310581],
          [-1.890028, 43.310575],
          [-1.89004, 43.310569],
          [-1.890053, 43.310564],
          [-1.890066, 43.310561],
          [-1.89008, 43.310557],
          [-1.890093, 43.310555],
          [-1.890108, 43.310554],
          [-1.890122, 43.310553],
          [-1.890136, 43.310553],
          [-1.89015, 43.310555],
          [-1.890407, 43.310583],
          [-1.890613, 43.310623],
          [-1.89141, 43.310825],
          [-1.892048, 43.310979],
          [-1.892947, 43.311218],
          [-1.89397, 43.311465],
          [-1.894378, 43.311567],
          [-1.894727, 43.311638],
          [-1.894951, 43.311743],
          [-1.89533, 43.311931],
          [-1.896273, 43.312401],
          [-1.897162, 43.312826],
          [-1.898115, 43.313287],
          [-1.898662, 43.313552],
          [-1.898961, 43.31376],
          [-1.89933, 43.314073],
          [-1.900199, 43.314761],
          [-1.900224, 43.314779],
          [-1.900251, 43.314795],
          [-1.900279, 43.31481],
          [-1.900309, 43.314823],
          [-1.900341, 43.314834],
          [-1.900374, 43.314843],
          [-1.900407, 43.314849],
          [-1.900421, 43.314851],
          [-1.900435, 43.314853],
          [-1.900449, 43.314853],
          [-1.900463, 43.314853],
          [-1.900477, 43.314852],
          [-1.90049, 43.31485],
          [-1.900504, 43.314847],
          [-1.900598, 43.314828],
          [-1.900694, 43.314813],
          [-1.900747, 43.314808],
          [-1.900826, 43.314808],
          [-1.900958, 43.314811],
          [-1.901108, 43.31481],
          [-1.901591, 43.314844],
          [-1.902445, 43.314903],
          [-1.903361, 43.31497],
          [-1.90392, 43.315003],
          [-1.903981, 43.315009],
          [-1.904041, 43.315018],
          [-1.9041, 43.315031],
          [-1.904158, 43.315047],
          [-1.904213, 43.315067],
          [-1.904273, 43.315094],
          [-1.90433, 43.315123],
          [-1.904384, 43.315156],
          [-1.904435, 43.315191],
          [-1.904482, 43.315229],
          [-1.904525, 43.31527],
          [-1.904661, 43.315456],
          [-1.90478, 43.315648],
          [-1.905133, 43.316288],
          [-1.905413, 43.316809],
          [-1.905645, 43.317241],
          [-1.90577, 43.317468],
          [-1.905943, 43.317745],
          [-1.906027, 43.317899],
          [-1.906062, 43.317994],
          [-1.906101, 43.318127],
          [-1.906173, 43.318353],
          [-1.906305, 43.318795],
          [-1.90634, 43.318881],
          [-1.906384, 43.318964],
          [-1.906437, 43.319044],
          [-1.906481, 43.319105],
          [-1.906538, 43.319151],
          [-1.906581, 43.319177],
          [-1.906626, 43.319201],
          [-1.906675, 43.319223],
          [-1.906725, 43.319241],
          [-1.906778, 43.319256],
          [-1.906831, 43.319268],
          [-1.906886, 43.319277],
          [-1.906942, 43.319283],
          [-1.906998, 43.319285],
          [-1.907054, 43.319284],
          [-1.90711, 43.31928],
          [-1.907165, 43.319272],
          [-1.907219, 43.319261],
          [-1.907271, 43.319247],
          [-1.907322, 43.319229],
          [-1.90737, 43.319209],
          [-1.907455, 43.319167],
          [-1.907536, 43.319121],
          [-1.907751, 43.319],
          [-1.907975, 43.318887],
          [-1.908327, 43.318754],
          [-1.908891, 43.318565],
          [-1.910779, 43.317951],
          [-1.911794, 43.317667],
          [-1.911901, 43.317639],
          [-1.912012, 43.317616],
          [-1.912124, 43.3176],
          [-1.912253, 43.317584],
          [-1.912534, 43.317571],
          [-1.912899, 43.317558],
          [-1.913174, 43.317552],
          [-1.913448, 43.317563],
          [-1.91372, 43.317591],
          [-1.91384, 43.317611],
          [-1.913958, 43.317636],
          [-1.914073, 43.317667],
          [-1.914738, 43.317888],
          [-1.917204, 43.318798],
          [-1.918624, 43.319326],
          [-1.91941, 43.319655],
          [-1.920427, 43.320153],
          [-1.921767, 43.320808],
          [-1.921873, 43.320865],
          [-1.921972, 43.320928],
          [-1.922065, 43.320996],
          [-1.92215, 43.321069],
          [-1.922205, 43.321117],
          [-1.922265, 43.321162],
          [-1.922329, 43.321203],
          [-1.922421, 43.321254],
          [-1.922518, 43.321299],
          [-1.92262, 43.321337],
          [-1.922726, 43.321368],
          [-1.922836, 43.321393],
          [-1.922948, 43.321411],
          [-1.923572, 43.321462],
          [-1.9242, 43.321486],
          [-1.924828, 43.321481],
          [-1.925674, 43.321403],
          [-1.926903, 43.321282],
          [-1.927591, 43.321228],
          [-1.928331, 43.321231],
          [-1.929443, 43.321261],
          [-1.931306, 43.321302],
          [-1.931603, 43.321295],
          [-1.931962, 43.321269],
          [-1.932549, 43.321211],
          [-1.933122, 43.321146],
          [-1.933446, 43.321097],
          [-1.933657, 43.321056],
          [-1.933863, 43.321002],
          [-1.934063, 43.320937],
          [-1.935132, 43.320594],
          [-1.935627, 43.320433],
          [-1.936022, 43.320322],
          [-1.936372, 43.320239],
          [-1.936669, 43.32018],
          [-1.936963, 43.320129],
          [-1.937156, 43.320103],
          [-1.937308, 43.32009],
          [-1.937386, 43.32009],
          [-1.937446, 43.3201],
          [-1.937491, 43.320115],
          [-1.937532, 43.320132],
          [-1.937555, 43.320142],
          [-1.937579, 43.32015],
          [-1.937604, 43.320156],
          [-1.937629, 43.320161],
          [-1.937655, 43.320164],
          [-1.937681, 43.320166],
          [-1.937707, 43.320166],
          [-1.937733, 43.320164],
          [-1.937759, 43.320161],
          [-1.937785, 43.320156],
          [-1.937809, 43.32015],
          [-1.937894, 43.320119],
          [-1.938016, 43.320083],
          [-1.938186, 43.320052],
          [-1.938314, 43.320036],
          [-1.93844, 43.320014],
          [-1.938581, 43.319983],
          [-1.938718, 43.319946],
          [-1.938853, 43.319902],
          [-1.939138, 43.319797],
          [-1.939174, 43.319785],
          [-1.939212, 43.319774],
          [-1.93925, 43.319766],
          [-1.93929, 43.31976],
          [-1.939329, 43.319756],
          [-1.939369, 43.319754],
          [-1.93941, 43.319755],
          [-1.93945, 43.319757],
          [-1.939754, 43.319795],
          [-1.940612, 43.319914],
          [-1.941221, 43.320038],
          [-1.94218, 43.320293],
          [-1.943146, 43.320556],
          [-1.943746, 43.320769],
          [-1.94411, 43.320915],
          [-1.944148, 43.320933],
          [-1.944184, 43.320953],
          [-1.944218, 43.320976],
          [-1.944249, 43.321],
          [-1.944277, 43.321026],
          [-1.944302, 43.321054],
          [-1.944323, 43.321084],
          [-1.944341, 43.321114],
          [-1.944362, 43.321161],
          [-1.944373, 43.321186],
          [-1.944389, 43.32121],
          [-1.94441, 43.321232],
          [-1.944437, 43.321251],
          [-1.944467, 43.321266],
          [-1.944501, 43.321276],
          [-1.944536, 43.321283],
          [-1.944573, 43.321285],
          [-1.944636, 43.321283],
          [-1.944746, 43.32128],
          [-1.944855, 43.321285],
          [-1.944957, 43.321299],
          [-1.945362, 43.321351],
          [-1.945925, 43.321398],
          [-1.946381, 43.321404],
          [-1.947071, 43.3214],
          [-1.94841, 43.32138],
          [-1.949599, 43.321365],
          [-1.950508, 43.321355],
          [-1.951122, 43.321367],
          [-1.951833, 43.321396],
          [-1.953402, 43.321471],
          [-1.955135, 43.321554],
          [-1.957019, 43.321641],
          [-1.958392, 43.32171],
          [-1.959799, 43.321778],
          [-1.960298, 43.321805],
          [-1.960353, 43.321809],
          [-1.960408, 43.321817],
          [-1.960462, 43.321828],
          [-1.960514, 43.321842],
          [-1.960565, 43.321859],
          [-1.960676, 43.321914],
          [-1.960771, 43.321969],
          [-1.960849, 43.322005],
          [-1.960934, 43.322032],
          [-1.961025, 43.322047],
          [-1.961117, 43.322051],
          [-1.961209, 43.322043],
          [-1.961298, 43.322023],
          [-1.961553, 43.321952],
          [-1.961649, 43.321929],
          [-1.961748, 43.321912],
          [-1.961849, 43.321902],
          [-1.96195, 43.321897],
          [-1.962052, 43.321898],
          [-1.963099, 43.321945],
          [-1.964573, 43.322017],
          [-1.965284, 43.322056],
          [-1.965395, 43.322066],
          [-1.965506, 43.322081],
          [-1.965614, 43.322102],
          [-1.96572, 43.322128],
          [-1.965823, 43.322161],
          [-1.96595, 43.322209],
          [-1.96609, 43.322276],
          [-1.96644, 43.32251],
          [-1.967176, 43.323079],
          [-1.967879, 43.32362],
          [-1.968815, 43.324333],
          [-1.97007, 43.325309],
          [-1.971141, 43.32614],
          [-1.971477, 43.326391],
          [-1.971508, 43.326413],
          [-1.971542, 43.326433],
          [-1.971578, 43.326451],
          [-1.971616, 43.326466],
          [-1.971656, 43.32648],
          [-1.971697, 43.32649],
          [-1.971739, 43.326499],
          [-1.971782, 43.326505],
          [-1.971825, 43.326508],
          [-1.971868, 43.326509],
          [-1.971912, 43.326507],
          [-1.971955, 43.326502],
          [-1.97202, 43.326492],
          [-1.972083, 43.326479],
          [-1.972146, 43.326462],
          [-1.972206, 43.326442],
          [-1.972901, 43.326201],
          [-1.973843, 43.32585],
          [-1.974898, 43.325448],
          [-1.976157, 43.324972],
          [-1.97729, 43.324546],
          [-1.980456, 43.323342],
          [-1.98088, 43.323154],
          [-1.981223, 43.323046],
          [-1.981733, 43.322895],
          [-1.982142, 43.322723],
          [-1.983027, 43.3224],
          [-1.983799, 43.322108]
        ]
      }
    }
  ]
}
