{
  "type": "FeatureCollection",
  "features": [
    {
      "type": "Feature",
      "properties": {
        "id": "barcelona-half-marathon-2027-route",
        "name": "Hyundai Barcelona Half Marathon 2027 route"
      },
      "geometry": {
        "type": "LineString",
        "coordinates": [
          [2.184, 41.3869],
          [2.18481, 41.386275],
          [2.18562, 41.38565],
          [2.1856, 41.38561],
          [2.18568, 41.38554],
          [2.1856, 41.38541],
          [2.185029, 41.384747],
          [2.184457, 41.384084],
          [2.183886, 41.383421],
          [2.183314, 41.382759],
          [2.182743, 41.382096],
          [2.182171, 41.381433],
          [2.1816, 41.38077],
          [2.180995, 41.380022],
          [2.18039, 41.379273],
          [2.179785, 41.378525],
          [2.17918, 41.377777],
          [2.178575, 41.377028],
          [2.17797, 41.37628],
          [2.17786, 41.37614],
          [2.17764, 41.37607],
          [2.17751, 41.37598],
          [2.17739, 41.3758],
          [2.17736, 41.37571],
          [2.17737, 41.37564],
          [2.17743, 41.37553],
          [2.177045, 41.37504],
          [2.17666, 41.37455],
          [2.17655, 41.37449],
          [2.17642, 41.37446],
          [2.17618, 41.37443],
          [2.17573, 41.37443],
          [2.17557, 41.37453],
          [2.17535, 41.37465],
          [2.17516, 41.37468],
          [2.174343, 41.374737],
          [2.173527, 41.374793],
          [2.17271, 41.37485],
          [2.17172, 41.374905],
          [2.17073, 41.37496],
          [2.169847, 41.375017],
          [2.168963, 41.375073],
          [2.16808, 41.37513],
          [2.16782, 41.37514],
          [2.16769, 41.37524],
          [2.166914, 41.375816],
          [2.166138, 41.376392],
          [2.165362, 41.376968],
          [2.164586, 41.377544],
          [2.16381, 41.37812],
          [2.163034, 41.378696],
          [2.162258, 41.379272],
          [2.161482, 41.379848],
          [2.160706, 41.380424],
          [2.15993, 41.381],
          [2.15969, 41.381],
          [2.158952, 41.38046],
          [2.158213, 41.37992],
          [2.157475, 41.37938],
          [2.156737, 41.37884],
          [2.155998, 41.3783],
          [2.15526, 41.37776],
          [2.15482, 41.37743],
          [2.15438, 41.3771],
          [2.15434, 41.37712],
          [2.1543, 41.3771],
          [2.15397, 41.37711],
          [2.15393, 41.37709],
          [2.15342, 41.37748],
          [2.15291, 41.37787],
          [2.15304, 41.37797],
          [2.153792, 41.378532],
          [2.154543, 41.379093],
          [2.155295, 41.379655],
          [2.156047, 41.380217],
          [2.156798, 41.380778],
          [2.15755, 41.38134],
          [2.158321, 41.381911],
          [2.159092, 41.382482],
          [2.159863, 41.383053],
          [2.160634, 41.383624],
          [2.161405, 41.384196],
          [2.162177, 41.384767],
          [2.162948, 41.385338],
          [2.163719, 41.385909],
          [2.16449, 41.38648],
          [2.16513, 41.38696],
          [2.16526, 41.38703],
          [2.16532, 41.38698],
          [2.166105, 41.387575],
          [2.16689, 41.38817],
          [2.16722, 41.38839],
          [2.16717, 41.38845],
          [2.16737, 41.38855],
          [2.16783, 41.388895],
          [2.16829, 41.38924],
          [2.16853, 41.38943],
          [2.16866, 41.38948],
          [2.1687, 41.38952],
          [2.16865, 41.38956],
          [2.16875, 41.38968],
          [2.169503, 41.390257],
          [2.170257, 41.390833],
          [2.17101, 41.39141],
          [2.17137, 41.39167],
          [2.17163, 41.39192],
          [2.172, 41.3922],
          [2.17275, 41.392777],
          [2.1735, 41.393353],
          [2.17425, 41.39393],
          [2.17437, 41.39401],
          [2.17515, 41.393452],
          [2.17593, 41.392894],
          [2.17671, 41.392336],
          [2.17749, 41.391778],
          [2.17827, 41.39122],
          [2.17831, 41.39119],
          [2.1783, 41.39116],
          [2.17841, 41.39117],
          [2.178955, 41.39138],
          [2.1795, 41.39159],
          [2.1796, 41.3915],
          [2.17982, 41.39158],
          [2.1802, 41.39155],
          [2.18053, 41.39157],
          [2.18057, 41.3916],
          [2.18072, 41.39155],
          [2.181225, 41.39117],
          [2.18173, 41.39079],
          [2.18179, 41.39083],
          [2.182225, 41.390495],
          [2.18266, 41.39016],
          [2.18272, 41.39015],
          [2.18278, 41.39011],
          [2.183225, 41.39043],
          [2.18367, 41.39075],
          [2.184469, 41.391337],
          [2.185268, 41.391924],
          [2.186067, 41.392511],
          [2.186867, 41.393098],
          [2.187666, 41.393685],
          [2.188465, 41.394272],
          [2.189264, 41.394859],
          [2.190064, 41.395445],
          [2.190863, 41.396032],
          [2.191662, 41.396619],
          [2.192461, 41.397206],
          [2.193261, 41.397793],
          [2.19406, 41.39838],
          [2.194862, 41.399],
          [2.195664, 41.39962],
          [2.196466, 41.40024],
          [2.197268, 41.40086],
          [2.19807, 41.40148],
          [2.19808, 41.40165],
          [2.197343, 41.40224],
          [2.196605, 41.40283],
          [2.195868, 41.40342],
          [2.19513, 41.40401],
          [2.194313, 41.404617],
          [2.193497, 41.405223],
          [2.19268, 41.40583],
          [2.19344, 41.406417],
          [2.1942, 41.407003],
          [2.19496, 41.40759],
          [2.195475, 41.40795],
          [2.19599, 41.40831],
          [2.196775, 41.408898],
          [2.197561, 41.409485],
          [2.198346, 41.410073],
          [2.199131, 41.410661],
          [2.199917, 41.411249],
          [2.200702, 41.411836],
          [2.201487, 41.412424],
          [2.202273, 41.413012],
          [2.203058, 41.413599],
          [2.203844, 41.414187],
          [2.204629, 41.414775],
          [2.205415, 41.415362],
          [2.2062, 41.41595],
          [2.20624, 41.41592],
          [2.20627, 41.41593],
          [2.20635, 41.41587],
          [2.2064, 41.41589],
          [2.207027, 41.415417],
          [2.207653, 41.414943],
          [2.20828, 41.41447],
          [2.20838, 41.41455],
          [2.20841, 41.41453],
          [2.20866, 41.41454],
          [2.20869, 41.41452],
          [2.20943, 41.41506],
          [2.21017, 41.4156],
          [2.21091, 41.41614],
          [2.21165, 41.41668],
          [2.21175, 41.41675],
          [2.21238, 41.41628],
          [2.21301, 41.41581],
          [2.213788, 41.415232],
          [2.214566, 41.414654],
          [2.215344, 41.414076],
          [2.216122, 41.413498],
          [2.2169, 41.41292],
          [2.21718, 41.41272],
          [2.21718, 41.41268],
          [2.21737, 41.41254],
          [2.21754, 41.41239],
          [2.21809, 41.411975],
          [2.21864, 41.41156],
          [2.21866, 41.41145],
          [2.21866, 41.41144],
          [2.217525, 41.411152],
          [2.216391, 41.410865],
          [2.215256, 41.410577],
          [2.214121, 41.410289],
          [2.212987, 41.410002],
          [2.211852, 41.409714],
          [2.210717, 41.409426],
          [2.209583, 41.409139],
          [2.208448, 41.408851],
          [2.207314, 41.408563],
          [2.206179, 41.408276],
          [2.205045, 41.407988],
          [2.20391, 41.4077],
          [2.20293, 41.407447],
          [2.20195, 41.407193],
          [2.20097, 41.40694],
          [2.20071, 41.40661],
          [2.20142, 41.406067],
          [2.20213, 41.405523],
          [2.20284, 41.40498],
          [2.20308, 41.40517],
          [2.20391, 41.405788],
          [2.20474, 41.406406],
          [2.20557, 41.407024],
          [2.2064, 41.407642],
          [2.20723, 41.40826],
          [2.20835, 41.40855],
          [2.20947, 41.40884],
          [2.21059, 41.40913],
          [2.21171, 41.40942],
          [2.21283, 41.40971],
          [2.21395, 41.41],
          [2.214926, 41.410236],
          [2.215902, 41.410472],
          [2.216878, 41.410708],
          [2.217854, 41.410944],
          [2.21883, 41.41118],
          [2.21901, 41.41123],
          [2.21904, 41.41121],
          [2.21905, 41.41106],
          [2.21904, 41.411],
          [2.21896, 41.41089],
          [2.21899, 41.41088],
          [2.218387, 41.410225],
          [2.217785, 41.40957],
          [2.217182, 41.408915],
          [2.21658, 41.40826],
          [2.21675, 41.40814],
          [2.2167, 41.40808],
          [2.217445, 41.407505],
          [2.21819, 41.40693],
          [2.2182, 41.40693],
          [2.217383, 41.406301],
          [2.216565, 41.405672],
          [2.215748, 41.405043],
          [2.214931, 41.404414],
          [2.214113, 41.403785],
          [2.213296, 41.403156],
          [2.212479, 41.402526],
          [2.211662, 41.401897],
          [2.210844, 41.401268],
          [2.210027, 41.400639],
          [2.20921, 41.40001],
          [2.20917, 41.40004],
          [2.20849, 41.39945],
          [2.2085, 41.39941],
          [2.20846, 41.39935],
          [2.20846, 41.39931],
          [2.20856, 41.39918],
          [2.20934, 41.3986],
          [2.20922, 41.39842],
          [2.20898, 41.39813],
          [2.20878, 41.39784],
          [2.20868, 41.39764],
          [2.20854, 41.39719],
          [2.20831, 41.3967],
          [2.2082, 41.39654],
          [2.20803, 41.39635],
          [2.20778, 41.39614],
          [2.2073, 41.39578],
          [2.20682, 41.39542],
          [2.20642, 41.39514],
          [2.20578, 41.39462],
          [2.20576, 41.39456],
          [2.20538, 41.39414],
          [2.20492, 41.39344],
          [2.20483, 41.39323],
          [2.20455, 41.39279],
          [2.20429, 41.3925],
          [2.20428, 41.39249],
          [2.2041, 41.39237],
          [2.20388, 41.39217],
          [2.20313, 41.39175],
          [2.20268, 41.39157],
          [2.20201, 41.39136],
          [2.20164, 41.39122],
          [2.20125, 41.39102],
          [2.20081, 41.39075],
          [2.20029, 41.39031],
          [2.20015, 41.39015],
          [2.19956, 41.39058],
          [2.198697, 41.389958],
          [2.197835, 41.389335],
          [2.196972, 41.388713],
          [2.19611, 41.38809],
          [2.19606, 41.38805],
          [2.19599, 41.38803],
          [2.19572, 41.3882],
          [2.194925, 41.388796],
          [2.19413, 41.389393],
          [2.193335, 41.389989],
          [2.19254, 41.390585],
          [2.191745, 41.391181],
          [2.19095, 41.391778],
          [2.190155, 41.392374],
          [2.18936, 41.39297],
          [2.18922, 41.39288],
          [2.18895, 41.39288],
          [2.188185, 41.392323],
          [2.18742, 41.391765],
          [2.186655, 41.391208],
          [2.18589, 41.39065],
          [2.18588, 41.39065]
        ]
      }
    }
  ]
}
