{
  "type": "FeatureCollection",
  "features": [
    {
      "type": "Feature",
      "properties": {
        "id": "sevilla-marathon-2027-route",
        "name": "Zurich Seville Marathon 2027 route"
      },
      "geometry": {
        "type": "LineString",
        "coordinates": [
          [-5.99006, 37.37839],
          [-5.98979, 37.37889],
          [-5.98959, 37.37919],
          [-5.98959, 37.37931],
          [-5.98953, 37.37941],
          [-5.98946, 37.37946],
          [-5.98936, 37.37959],
          [-5.98911, 37.38004],
          [-5.98892, 37.38046],
          [-5.98881, 37.38082],
          [-5.98871, 37.38106],
          [-5.98875, 37.38113],
          [-5.98873, 37.3812],
          [-5.98868, 37.38126],
          [-5.98861, 37.38131],
          [-5.98852, 37.38142],
          [-5.98815, 37.38176],
          [-5.98795, 37.3821],
          [-5.987573, 37.382823],
          [-5.987195, 37.383545],
          [-5.986818, 37.384268],
          [-5.98644, 37.38499],
          [-5.98602, 37.385755],
          [-5.9856, 37.38652],
          [-5.98531, 37.38705],
          [-5.98507, 37.38759],
          [-5.98484, 37.388197],
          [-5.98461, 37.388803],
          [-5.98438, 37.38941],
          [-5.98419, 37.38996],
          [-5.98411, 37.39046],
          [-5.98408, 37.39089],
          [-5.98408, 37.391515],
          [-5.98408, 37.39214],
          [-5.98406, 37.39274],
          [-5.984, 37.39307],
          [-5.983865, 37.393565],
          [-5.98373, 37.39406],
          [-5.98365, 37.39421],
          [-5.98346, 37.3945],
          [-5.982973, 37.395175],
          [-5.982485, 37.39585],
          [-5.981998, 37.396525],
          [-5.98151, 37.3972],
          [-5.98143, 37.39739],
          [-5.98158, 37.39828],
          [-5.98165, 37.39852],
          [-5.98176, 37.39868],
          [-5.98198, 37.3989],
          [-5.98223, 37.39906],
          [-5.98287, 37.39934],
          [-5.983495, 37.399605],
          [-5.98412, 37.39987],
          [-5.98444, 37.40004],
          [-5.98487, 37.40048],
          [-5.98524, 37.40092],
          [-5.98557, 37.401445],
          [-5.9859, 37.40197],
          [-5.98664, 37.40241],
          [-5.98738, 37.40285],
          [-5.98766, 37.403],
          [-5.98797, 37.40309],
          [-5.98852, 37.4031],
          [-5.98934, 37.40303],
          [-5.98973, 37.40304],
          [-5.990638, 37.403162],
          [-5.991546, 37.403284],
          [-5.992454, 37.403406],
          [-5.993362, 37.403528],
          [-5.99427, 37.40365],
          [-5.9949, 37.40373],
          [-5.99514, 37.40374],
          [-5.99537, 37.40346],
          [-5.99554, 37.40329],
          [-5.99597, 37.4031],
          [-5.99605, 37.40305],
          [-5.99667, 37.40243],
          [-5.99729, 37.40181],
          [-5.99791, 37.40119],
          [-5.998463, 37.40061],
          [-5.999015, 37.40003],
          [-5.999568, 37.39945],
          [-6.00012, 37.39887],
          [-6.00042, 37.39852],
          [-6.000847, 37.39794],
          [-6.001273, 37.39736],
          [-6.0017, 37.39678],
          [-6.00207, 37.396255],
          [-6.00244, 37.39573],
          [-6.00276, 37.395315],
          [-6.00308, 37.3949],
          [-6.00342, 37.3943],
          [-6.00356, 37.39389],
          [-6.0036, 37.39366],
          [-6.00358, 37.39332],
          [-6.00366, 37.39316],
          [-6.00366, 37.39315],
          [-6.00363, 37.39305],
          [-6.00363, 37.3929],
          [-6.003495, 37.39225],
          [-6.00336, 37.3916],
          [-6.00333, 37.39153],
          [-6.00334, 37.39145],
          [-6.00318, 37.39091],
          [-6.00306, 37.39092],
          [-6.0029, 37.39054],
          [-6.00274, 37.390015],
          [-6.00258, 37.38949],
          [-6.00241, 37.38888],
          [-6.00231, 37.38872],
          [-6.00224, 37.38866],
          [-6.00215, 37.38819],
          [-6.00209, 37.38803],
          [-6.00191, 37.38776],
          [-6.00161, 37.38749],
          [-6.00079, 37.38688],
          [-6.00041, 37.38656],
          [-5.999745, 37.385963],
          [-5.99908, 37.385367],
          [-5.998415, 37.38477],
          [-5.99775, 37.384173],
          [-5.997085, 37.383577],
          [-5.99642, 37.38298],
          [-5.99598, 37.38242],
          [-5.99559, 37.381885],
          [-5.9952, 37.38135],
          [-5.995903, 37.380987],
          [-5.996607, 37.380623],
          [-5.99731, 37.38026],
          [-5.99754, 37.3802],
          [-5.99771, 37.38027],
          [-5.99784, 37.38027],
          [-5.99795, 37.38022],
          [-5.99803, 37.38014],
          [-5.99807, 37.38003],
          [-5.99806, 37.37998],
          [-5.99815, 37.37988],
          [-5.99883, 37.379523],
          [-5.99951, 37.379167],
          [-6.00019, 37.37881],
          [-6.001058, 37.37836],
          [-6.001925, 37.37791],
          [-6.002793, 37.37746],
          [-6.00366, 37.37701],
          [-6.004425, 37.376625],
          [-6.00519, 37.37624],
          [-6.00534, 37.37604],
          [-6.00534, 37.37596],
          [-6.00537, 37.37589],
          [-6.00544, 37.37584],
          [-6.00533, 37.37571],
          [-6.00544, 37.37565],
          [-6.004885, 37.374965],
          [-6.00433, 37.37428],
          [-6.00422, 37.37434],
          [-6.00392, 37.37398],
          [-6.00373, 37.37368],
          [-6.00361, 37.37344],
          [-6.00353, 37.37318],
          [-6.00349, 37.37289],
          [-6.00359, 37.37231],
          [-6.00367, 37.37205],
          [-6.00392, 37.37175],
          [-6.00421, 37.37165],
          [-6.00442, 37.37164],
          [-6.005297, 37.371767],
          [-6.006173, 37.371893],
          [-6.00705, 37.37202],
          [-6.00731, 37.3721],
          [-6.0075, 37.37221],
          [-6.00771, 37.37238],
          [-6.00817, 37.37296],
          [-6.00854, 37.3734],
          [-6.00891, 37.37384],
          [-6.009, 37.37405],
          [-6.00887, 37.37425],
          [-6.00886, 37.37424],
          [-6.00876, 37.37432],
          [-6.00805, 37.374715],
          [-6.00734, 37.37511],
          [-6.00663, 37.375505],
          [-6.00592, 37.3759],
          [-6.00582, 37.37599],
          [-6.00581, 37.37605],
          [-6.00577, 37.37611],
          [-6.00571, 37.37616],
          [-6.00579, 37.37626],
          [-6.006342, 37.376953],
          [-6.006895, 37.377645],
          [-6.007447, 37.378338],
          [-6.008, 37.37903],
          [-6.008535, 37.379695],
          [-6.00907, 37.38036],
          [-6.00916, 37.38084],
          [-6.00919, 37.38113],
          [-6.0095, 37.38155],
          [-6.009875, 37.382],
          [-6.01025, 37.38245],
          [-6.01073, 37.38309],
          [-6.01097, 37.38345],
          [-6.01106, 37.3837],
          [-6.01119, 37.3844],
          [-6.01119, 37.38441],
          [-6.011225, 37.38496],
          [-6.01126, 37.38551],
          [-6.01126, 37.38575],
          [-6.01112, 37.38648],
          [-6.010925, 37.387235],
          [-6.01073, 37.38799],
          [-6.010535, 37.388745],
          [-6.01034, 37.3895],
          [-6.01036, 37.38969],
          [-6.01041, 37.38985],
          [-6.01057, 37.39023],
          [-6.01074, 37.39054],
          [-6.01074, 37.39062],
          [-6.01071, 37.39068],
          [-6.01066, 37.39073],
          [-6.01052, 37.39079],
          [-6.01042, 37.3908],
          [-6.00962, 37.39067],
          [-6.0095, 37.39081],
          [-6.00927, 37.391582],
          [-6.00904, 37.392354],
          [-6.00881, 37.393126],
          [-6.00858, 37.393898],
          [-6.00835, 37.39467],
          [-6.00823, 37.3949],
          [-6.00799, 37.39519],
          [-6.00791, 37.39535],
          [-6.00778, 37.39546],
          [-6.007272, 37.39608],
          [-6.006764, 37.3967],
          [-6.006256, 37.39732],
          [-6.005748, 37.39794],
          [-6.00524, 37.39856],
          [-6.00508, 37.39884],
          [-6.00508, 37.39885],
          [-6.004868, 37.399613],
          [-6.004655, 37.400375],
          [-6.004443, 37.401138],
          [-6.00423, 37.4019],
          [-6.004034, 37.402634],
          [-6.003838, 37.403368],
          [-6.003642, 37.404102],
          [-6.003446, 37.404836],
          [-6.00325, 37.40557],
          [-6.003013, 37.406447],
          [-6.002777, 37.407323],
          [-6.00254, 37.4082],
          [-6.002346, 37.408926],
          [-6.002152, 37.409652],
          [-6.001958, 37.410378],
          [-6.001764, 37.411104],
          [-6.00157, 37.41183],
          [-6.00155, 37.4119],
          [-6.00156, 37.41204],
          [-6.00165, 37.4121],
          [-6.0017, 37.41216],
          [-6.0017, 37.41224],
          [-6.00167, 37.41231],
          [-6.00163, 37.41235],
          [-6.00157, 37.41239],
          [-6.00149, 37.41241],
          [-6.00143, 37.41251],
          [-6.00129, 37.41304],
          [-6.0013, 37.41313],
          [-6.00138, 37.41316],
          [-6.00145, 37.41328],
          [-6.00145, 37.4138],
          [-6.00137, 37.4139],
          [-6.00133, 37.4141],
          [-6.00132, 37.41495],
          [-6.00131, 37.4158],
          [-6.00138, 37.4159],
          [-6.00138, 37.41595],
          [-6.00133, 37.41603],
          [-6.00135, 37.41619],
          [-6.00161, 37.416877],
          [-6.00187, 37.417563],
          [-6.00213, 37.41825],
          [-6.00221, 37.41845],
          [-6.00231, 37.4185],
          [-6.00233, 37.41861],
          [-6.00229, 37.41868],
          [-6.00223, 37.4187],
          [-6.00208, 37.41869],
          [-6.00201, 37.41862],
          [-6.00201, 37.41854],
          [-6.00204, 37.4185],
          [-6.00203, 37.41836],
          [-6.00199, 37.41829],
          [-6.001737, 37.4176],
          [-6.001483, 37.41691],
          [-6.00123, 37.41622],
          [-6.00123, 37.41617],
          [-6.00115, 37.41608],
          [-6.00109, 37.41606],
          [-6.00102, 37.41598],
          [-6.001, 37.41593],
          [-6.00104, 37.41584],
          [-6.00108, 37.4158],
          [-6.00111, 37.41569],
          [-6.001125, 37.414895],
          [-6.00114, 37.4141],
          [-6.00108, 37.41391],
          [-6.00102, 37.41386],
          [-6.001, 37.4138],
          [-6.001, 37.41329],
          [-6.00103, 37.4132],
          [-6.00115, 37.41313],
          [-6.0012, 37.41304],
          [-6.00134, 37.4125],
          [-6.00131, 37.41236],
          [-6.00123, 37.41225],
          [-6.00109, 37.41218],
          [-6.00008, 37.41201],
          [-5.99979, 37.41191],
          [-5.99966, 37.4118],
          [-5.99964, 37.41174],
          [-5.99897, 37.411212],
          [-5.9983, 37.410684],
          [-5.99763, 37.410156],
          [-5.99696, 37.409628],
          [-5.99629, 37.4091],
          [-5.99624, 37.40906],
          [-5.99615, 37.40888],
          [-5.99615, 37.4088],
          [-5.99623, 37.40859],
          [-5.996818, 37.407905],
          [-5.997405, 37.40722],
          [-5.997993, 37.406535],
          [-5.99858, 37.40585],
          [-5.99866, 37.40567],
          [-5.99869, 37.40542],
          [-5.99867, 37.40533],
          [-5.99852, 37.40512],
          [-5.997663, 37.40463],
          [-5.996807, 37.40414],
          [-5.99595, 37.40365],
          [-5.99589, 37.40371],
          [-5.99584, 37.40372],
          [-5.99551, 37.40407],
          [-5.995048, 37.404675],
          [-5.994585, 37.40528],
          [-5.994123, 37.405885],
          [-5.99366, 37.40649],
          [-5.9933, 37.407],
          [-5.992855, 37.407603],
          [-5.99241, 37.408205],
          [-5.991965, 37.408808],
          [-5.99152, 37.40941],
          [-5.9914, 37.40935],
          [-5.990906, 37.410016],
          [-5.990412, 37.410682],
          [-5.989918, 37.411348],
          [-5.989424, 37.412014],
          [-5.98893, 37.41268],
          [-5.98876, 37.41306],
          [-5.98884, 37.41316],
          [-5.98887, 37.41332],
          [-5.98885, 37.41342],
          [-5.98878, 37.41351],
          [-5.98868, 37.41361],
          [-5.98852, 37.41366],
          [-5.98829, 37.41367],
          [-5.98807, 37.41358],
          [-5.98799, 37.41351],
          [-5.98798, 37.4135],
          [-5.98793, 37.41339],
          [-5.98791, 37.41325],
          [-5.98796, 37.41312],
          [-5.988, 37.41307],
          [-5.98812, 37.41298],
          [-5.98828, 37.41293],
          [-5.98845, 37.41292],
          [-5.98864, 37.41279],
          [-5.9888, 37.41262],
          [-5.98931, 37.411934],
          [-5.98982, 37.411248],
          [-5.99033, 37.410562],
          [-5.99084, 37.409876],
          [-5.99135, 37.40919],
          [-5.99096, 37.40899],
          [-5.9908, 37.40894],
          [-5.99035, 37.40886],
          [-5.98953, 37.40878],
          [-5.98934, 37.40872],
          [-5.98914, 37.40863],
          [-5.98887, 37.40846],
          [-5.98841, 37.4081],
          [-5.98874, 37.40772],
          [-5.9889, 37.40746],
          [-5.9892, 37.40691],
          [-5.9895, 37.40636],
          [-5.98953, 37.4062],
          [-5.98955, 37.40591],
          [-5.989545, 37.405235],
          [-5.98954, 37.40456],
          [-5.98937, 37.403805],
          [-5.9892, 37.40305],
          [-5.98852, 37.4031],
          [-5.98797, 37.40309],
          [-5.98766, 37.403],
          [-5.98738, 37.40285],
          [-5.98664, 37.40241],
          [-5.9859, 37.40197],
          [-5.98557, 37.401445],
          [-5.98524, 37.40092],
          [-5.98487, 37.40048],
          [-5.98444, 37.40004],
          [-5.98412, 37.39987],
          [-5.983495, 37.399605],
          [-5.98287, 37.39934],
          [-5.98223, 37.39906],
          [-5.98198, 37.3989],
          [-5.98176, 37.39868],
          [-5.98165, 37.39852],
          [-5.98157, 37.39828],
          [-5.98143, 37.39739],
          [-5.98148, 37.39726],
          [-5.98149, 37.39726],
          [-5.981983, 37.396508],
          [-5.982475, 37.395755],
          [-5.982968, 37.395003],
          [-5.98346, 37.39425],
          [-5.98347, 37.39423],
          [-5.98345, 37.39421],
          [-5.98334, 37.39415],
          [-5.982398, 37.39371],
          [-5.981456, 37.39327],
          [-5.980514, 37.39283],
          [-5.979572, 37.39239],
          [-5.97863, 37.39195],
          [-5.97859, 37.39193],
          [-5.97851, 37.39179],
          [-5.97852, 37.39172],
          [-5.97848, 37.39165],
          [-5.97841, 37.39159],
          [-5.97917, 37.390953],
          [-5.97993, 37.390315],
          [-5.98069, 37.389678],
          [-5.98145, 37.38904],
          [-5.981865, 37.3886],
          [-5.98228, 37.38816],
          [-5.98205, 37.38797],
          [-5.98191, 37.38792],
          [-5.98167, 37.38786],
          [-5.980665, 37.38773],
          [-5.97966, 37.3876],
          [-5.978985, 37.387405],
          [-5.97831, 37.38721],
          [-5.97805, 37.38716],
          [-5.97773, 37.38714],
          [-5.97718, 37.38713],
          [-5.976585, 37.38714],
          [-5.97599, 37.38715],
          [-5.97508, 37.38718],
          [-5.974223, 37.387223],
          [-5.973367, 37.387267],
          [-5.97251, 37.38731],
          [-5.97266, 37.38801],
          [-5.97268, 37.38807],
          [-5.97273, 37.38814],
          [-5.973317, 37.38861],
          [-5.973903, 37.38908],
          [-5.97449, 37.38955],
          [-5.97441, 37.38961],
          [-5.97458, 37.38977],
          [-5.97461, 37.39],
          [-5.97456, 37.39013],
          [-5.97451, 37.3902],
          [-5.9743, 37.3904],
          [-5.973654, 37.390918],
          [-5.973008, 37.391436],
          [-5.972362, 37.391954],
          [-5.971716, 37.392472],
          [-5.97107, 37.39299],
          [-5.97102, 37.39307],
          [-5.97074, 37.39329],
          [-5.97069, 37.3932],
          [-5.9706, 37.39332],
          [-5.97022, 37.39365],
          [-5.96958, 37.394164],
          [-5.96894, 37.394678],
          [-5.9683, 37.395192],
          [-5.96766, 37.395706],
          [-5.96702, 37.39622],
          [-5.9667, 37.39643],
          [-5.96639, 37.39667],
          [-5.96629, 37.3967],
          [-5.96616, 37.3967],
          [-5.96627, 37.39668],
          [-5.96612, 37.39665],
          [-5.965372, 37.396068],
          [-5.964625, 37.395485],
          [-5.963877, 37.394903],
          [-5.96313, 37.39432],
          [-5.96314, 37.39431],
          [-5.96298, 37.39416],
          [-5.96259, 37.39375],
          [-5.96242, 37.39365],
          [-5.96226, 37.39345],
          [-5.961597, 37.392927],
          [-5.960933, 37.392403],
          [-5.96027, 37.39188],
          [-5.95981, 37.39142],
          [-5.95959, 37.39125],
          [-5.95911, 37.39054],
          [-5.95891, 37.3906],
          [-5.95882, 37.39059],
          [-5.95872, 37.39056],
          [-5.95869, 37.39054],
          [-5.95865, 37.39051],
          [-5.9586, 37.39043],
          [-5.95859, 37.39042],
          [-5.95857, 37.3903],
          [-5.9586, 37.39022],
          [-5.95851, 37.38999],
          [-5.95858, 37.389247],
          [-5.95865, 37.388503],
          [-5.95872, 37.38776],
          [-5.95949, 37.38783],
          [-5.95952, 37.38765],
          [-5.95959, 37.38758],
          [-5.95968, 37.38755],
          [-5.95995, 37.38755],
          [-5.95995, 37.38753],
          [-5.960994, 37.387516],
          [-5.962038, 37.387502],
          [-5.963082, 37.387488],
          [-5.964126, 37.387474],
          [-5.96517, 37.38746],
          [-5.96517, 37.38736],
          [-5.965273, 37.3865],
          [-5.965377, 37.38564],
          [-5.96548, 37.38478],
          [-5.965583, 37.38392],
          [-5.965687, 37.38306],
          [-5.96579, 37.3822],
          [-5.96583, 37.38187],
          [-5.96604, 37.38183],
          [-5.96612, 37.38178],
          [-5.9662, 37.38169],
          [-5.96644, 37.38163],
          [-5.96659, 37.38161],
          [-5.967632, 37.381805],
          [-5.968673, 37.382],
          [-5.969715, 37.382195],
          [-5.970757, 37.38239],
          [-5.971798, 37.382585],
          [-5.97284, 37.38278],
          [-5.97306, 37.38282],
          [-5.97311, 37.38274],
          [-5.97317, 37.3827],
          [-5.97322, 37.38257],
          [-5.973473, 37.381771],
          [-5.973726, 37.380973],
          [-5.973979, 37.380174],
          [-5.974231, 37.379376],
          [-5.974484, 37.378577],
          [-5.974737, 37.377779],
          [-5.97499, 37.37698],
          [-5.97523, 37.3763],
          [-5.97547, 37.37562],
          [-5.97571, 37.37494],
          [-5.97571, 37.37483],
          [-5.97567, 37.37477],
          [-5.97565, 37.37471],
          [-5.97568, 37.37462],
          [-5.97573, 37.37454],
          [-5.97582, 37.37448],
          [-5.97588, 37.37446],
          [-5.976055, 37.373905],
          [-5.97623, 37.37335],
          [-5.9765, 37.37253],
          [-5.97657, 37.37238],
          [-5.97674, 37.37218],
          [-5.97694, 37.37189],
          [-5.97718, 37.371293],
          [-5.97742, 37.370697],
          [-5.97766, 37.3701],
          [-5.97781, 37.36955],
          [-5.97799, 37.36939],
          [-5.9783, 37.36922],
          [-5.97863, 37.36912],
          [-5.97861, 37.36915],
          [-5.979522, 37.368996],
          [-5.980434, 37.368842],
          [-5.981346, 37.368688],
          [-5.982258, 37.368534],
          [-5.98317, 37.36838],
          [-5.98333, 37.36834],
          [-5.98428, 37.3682],
          [-5.98523, 37.36806],
          [-5.98535, 37.36806],
          [-5.98521, 37.36757],
          [-5.98499, 37.36721],
          [-5.984537, 37.366428],
          [-5.984085, 37.365645],
          [-5.983632, 37.364863],
          [-5.98318, 37.36408],
          [-5.982738, 37.363294],
          [-5.982295, 37.362509],
          [-5.981853, 37.361723],
          [-5.981411, 37.360938],
          [-5.980969, 37.360152],
          [-5.980527, 37.359367],
          [-5.980084, 37.358581],
          [-5.979642, 37.357796],
          [-5.9792, 37.35701],
          [-5.98022, 37.35683],
          [-5.98038, 37.35709],
          [-5.98093, 37.35772],
          [-5.981394, 37.358507],
          [-5.981859, 37.359294],
          [-5.982323, 37.360081],
          [-5.982787, 37.360869],
          [-5.983251, 37.361656],
          [-5.983716, 37.362443],
          [-5.98418, 37.36323],
          [-5.984622, 37.363962],
          [-5.985063, 37.364693],
          [-5.985505, 37.365425],
          [-5.985947, 37.366157],
          [-5.986388, 37.366888],
          [-5.98683, 37.36762],
          [-5.98666, 37.36767],
          [-5.9867, 37.36774],
          [-5.98667, 37.36775],
          [-5.98643, 37.36784],
          [-5.98561, 37.36805],
          [-5.98564, 37.36816],
          [-5.98539, 37.36823],
          [-5.98558, 37.36902],
          [-5.98559, 37.36922],
          [-5.985495, 37.369775],
          [-5.9854, 37.37033],
          [-5.98545, 37.37108],
          [-5.9855, 37.37183],
          [-5.98549, 37.37199],
          [-5.98581, 37.37201],
          [-5.985917, 37.372707],
          [-5.986023, 37.373403],
          [-5.98613, 37.3741],
          [-5.98619, 37.37413],
          [-5.986515, 37.374675],
          [-5.98684, 37.37522],
          [-5.9869, 37.37521],
          [-5.98695, 37.37523],
          [-5.98699, 37.37527],
          [-5.98697, 37.37532],
          [-5.98704, 37.37536],
          [-5.98742, 37.37598],
          [-5.9878, 37.3766],
          [-5.98762, 37.37668],
          [-5.98768, 37.37679],
          [-5.98729, 37.37694],
          [-5.98721, 37.37683],
          [-5.98692, 37.37656],
          [-5.98678, 37.37652],
          [-5.98666, 37.37653],
          [-5.98655, 37.37657],
          [-5.98643, 37.37668],
          [-5.98641, 37.37674],
          [-5.98641, 37.37686],
          [-5.98649, 37.37711],
          [-5.98661, 37.37731],
          [-5.98679, 37.37751],
          [-5.98699, 37.37762],
          [-5.98707, 37.37763],
          [-5.98718, 37.37762],
          [-5.9873, 37.37758],
          [-5.98739, 37.37749],
          [-5.98741, 37.37743],
          [-5.98739, 37.37719],
          [-5.98729, 37.37694],
          [-5.98768, 37.37679],
          [-5.98774, 37.37688],
          [-5.98793, 37.37681],
          [-5.988307, 37.377433],
          [-5.988683, 37.378057],
          [-5.98906, 37.37868],
          [-5.98907, 37.37875],
          [-5.98911, 37.37884],
          [-5.98924, 37.37904],
          [-5.98917, 37.37906],
          [-5.98907, 37.37914],
          [-5.98892, 37.37913],
          [-5.98792, 37.378872],
          [-5.98692, 37.378614],
          [-5.98592, 37.378356],
          [-5.98492, 37.378098],
          [-5.98392, 37.37784],
          [-5.983505, 37.37867],
          [-5.98309, 37.3795],
          [-5.98296, 37.37981],
          [-5.98295, 37.37999],
          [-5.98301, 37.38027],
          [-5.983265, 37.3808],
          [-5.98352, 37.38133],
          [-5.9836, 37.38159],
          [-5.983753, 37.382433],
          [-5.983907, 37.383277],
          [-5.98406, 37.38412],
          [-5.98407, 37.38427],
          [-5.98411, 37.38443],
          [-5.98408, 37.38466],
          [-5.98405, 37.38475],
          [-5.98395, 37.38497],
          [-5.98374, 37.38534],
          [-5.98352, 37.385845],
          [-5.9833, 37.38635],
          [-5.9831, 37.38685],
          [-5.98287, 37.38755],
          [-5.98238, 37.38822],
          [-5.982025, 37.38861],
          [-5.98167, 37.389],
          [-5.980998, 37.389558],
          [-5.980325, 37.390115],
          [-5.979653, 37.390673],
          [-5.97898, 37.39123],
          [-5.97967, 37.391547],
          [-5.98036, 37.391863],
          [-5.98105, 37.39218],
          [-5.98158, 37.392415],
          [-5.98211, 37.39265],
          [-5.98222, 37.39272],
          [-5.98232, 37.39276],
          [-5.98296, 37.392865],
          [-5.9836, 37.39297],
          [-5.984, 37.39307],
          [-5.98378, 37.39391],
          [-5.98373, 37.39406],
          [-5.98365, 37.39421],
          [-5.98342, 37.39456],
          [-5.98299, 37.395145],
          [-5.98256, 37.39573],
          [-5.98213, 37.396315],
          [-5.9817, 37.3969],
          [-5.9815, 37.39722],
          [-5.98143, 37.39739],
          [-5.98157, 37.39828],
          [-5.98165, 37.39852],
          [-5.98176, 37.39868],
          [-5.98198, 37.3989],
          [-5.98223, 37.39906],
          [-5.98287, 37.39934],
          [-5.983495, 37.399605],
          [-5.98412, 37.39987],
          [-5.98444, 37.40004],
          [-5.98487, 37.40048],
          [-5.98524, 37.40092],
          [-5.98557, 37.401445],
          [-5.9859, 37.40197],
          [-5.98664, 37.40241],
          [-5.98738, 37.40285],
          [-5.98766, 37.403],
          [-5.98797, 37.40309],
          [-5.98852, 37.4031],
          [-5.98934, 37.40303],
          [-5.98973, 37.40304],
          [-5.990638, 37.403162],
          [-5.991546, 37.403284],
          [-5.992454, 37.403406],
          [-5.993362, 37.403528],
          [-5.99427, 37.40365],
          [-5.9949, 37.40373],
          [-5.99514, 37.40374],
          [-5.99515, 37.40379],
          [-5.99552, 37.40383],
          [-5.99561, 37.40373],
          [-5.99572, 37.40347],
          [-5.99565, 37.40335],
          [-5.99554, 37.40329],
          [-5.99539, 37.40318],
          [-5.99502, 37.40298],
          [-5.99492, 37.4029],
          [-5.99461, 37.402385],
          [-5.9943, 37.40187],
          [-5.99379, 37.4011],
          [-5.99369, 37.40086],
          [-5.99373, 37.40054],
          [-5.99387, 37.399685],
          [-5.99401, 37.39883],
          [-5.99413, 37.398183],
          [-5.99425, 37.397537],
          [-5.99437, 37.39689],
          [-5.99479, 37.39608],
          [-5.99486, 37.39589],
          [-5.995015, 37.395335],
          [-5.99517, 37.39478],
          [-5.99523, 37.39461],
          [-5.99528, 37.39434],
          [-5.9953, 37.39389],
          [-5.99535, 37.39375],
          [-5.99546, 37.39359],
          [-5.9956, 37.39344],
          [-5.99565, 37.39335],
          [-5.99565, 37.39271],
          [-5.99542, 37.39271],
          [-5.9954, 37.39246],
          [-5.99546, 37.39213],
          [-5.9955, 37.39207],
          [-5.99547, 37.39192],
          [-5.99541, 37.3914],
          [-5.9954, 37.39105],
          [-5.99524, 37.390475],
          [-5.99508, 37.3899],
          [-5.99501, 37.38947],
          [-5.99496, 37.38903],
          [-5.99499, 37.38903],
          [-5.9949, 37.38825],
          [-5.99482, 37.38826],
          [-5.99447, 37.38803],
          [-5.99437, 37.38793],
          [-5.99431, 37.38775],
          [-5.99427, 37.3875],
          [-5.994167, 37.386687],
          [-5.994063, 37.385873],
          [-5.99396, 37.38506],
          [-5.99382, 37.384303],
          [-5.99368, 37.383547],
          [-5.99354, 37.38279],
          [-5.99345, 37.38265],
          [-5.99309, 37.38231],
          [-5.993, 37.38225],
          [-5.9929, 37.38234],
          [-5.992057, 37.382113],
          [-5.991215, 37.381885],
          [-5.990372, 37.381658],
          [-5.98953, 37.38143],
          [-5.98928, 37.38141],
          [-5.98873, 37.3812],
          [-5.98875, 37.38113],
          [-5.98871, 37.38106],
          [-5.98881, 37.38082],
          [-5.98892, 37.38046],
          [-5.98911, 37.38004],
          [-5.98936, 37.37959],
          [-5.98946, 37.37946],
          [-5.98953, 37.37941],
          [-5.98959, 37.37931],
          [-5.98959, 37.37919],
          [-5.98979, 37.37889],
          [-5.990185, 37.378165],
          [-5.99058, 37.37744],
          [-5.990975, 37.376715],
          [-5.99137, 37.37599],
          [-5.99126, 37.37579],
          [-5.99113, 37.37571],
          [-5.99107, 37.37562],
          [-5.99105, 37.37552],
          [-5.99105, 37.37543],
          [-5.9911, 37.37536],
          [-5.99124, 37.37524],
          [-5.99134, 37.3752],
          [-5.99115, 37.37491],
          [-5.99083, 37.37424],
          [-5.990575, 37.373815],
          [-5.99032, 37.37339],
          [-5.98992, 37.3732],
          [-5.98981, 37.37312]
        ]
      }
    }
  ]
}
