{
  "type": "FeatureCollection",
  "features": [
    {
      "type": "Feature",
      "properties": {
        "id": "malaga-marathon-2026-route",
        "name": "Generali Malaga Marathon 2026 route"
      },
      "geometry": {
        "type": "LineString",
        "coordinates": [
          [-4.415966, 36.719528],
          [-4.421051, 36.718084],
          [-4.425197, 36.716996],
          [-4.426645, 36.716864],
          [-4.428164, 36.716863],
          [-4.428865, 36.716911],
          [-4.429019, 36.716982],
          [-4.429133, 36.717041],
          [-4.429231, 36.717127],
          [-4.429289, 36.717194],
          [-4.429313, 36.717266],
          [-4.429308, 36.717765],
          [-4.429347, 36.718201],
          [-4.429342, 36.718324],
          [-4.429291, 36.718851],
          [-4.428979, 36.721515],
          [-4.42895, 36.721542],
          [-4.428903, 36.721562],
          [-4.425337, 36.721746],
          [-4.425309, 36.721734],
          [-4.425287, 36.721714],
          [-4.425251, 36.7215],
          [-4.425212, 36.721019],
          [-4.425163, 36.72061],
          [-4.425152, 36.72041],
          [-4.425158, 36.720203],
          [-4.425217, 36.719668],
          [-4.425472, 36.718249],
          [-4.425709, 36.715851],
          [-4.425717, 36.715814],
          [-4.425731, 36.715784],
          [-4.425756, 36.715778],
          [-4.425788, 36.715778],
          [-4.426698, 36.715781],
          [-4.428319, 36.715911],
          [-4.429345, 36.716003],
          [-4.429653, 36.716042],
          [-4.429983, 36.716058],
          [-4.431127, 36.716151],
          [-4.432445, 36.716245],
          [-4.433122, 36.716258],
          [-4.433535, 36.716245],
          [-4.433959, 36.716217],
          [-4.434397, 36.716167],
          [-4.434813, 36.71611],
          [-4.435858, 36.715944],
          [-4.436188, 36.715874],
          [-4.436229, 36.715837],
          [-4.436294, 36.715752],
          [-4.436308, 36.71565],
          [-4.436284, 36.715551],
          [-4.436235, 36.71548],
          [-4.43617, 36.715419],
          [-4.436098, 36.715384],
          [-4.436029, 36.715361],
          [-4.435324, 36.715196],
          [-4.432493, 36.714245],
          [-4.432125, 36.714243],
          [-4.431777, 36.714126],
          [-4.431723, 36.71412],
          [-4.431669, 36.714119],
          [-4.431589, 36.714138],
          [-4.431514, 36.714162],
          [-4.43136, 36.714217],
          [-4.43118, 36.714285],
          [-4.430897, 36.714473],
          [-4.430541, 36.714799],
          [-4.429916, 36.715354],
          [-4.429875, 36.715424],
          [-4.429767, 36.715686],
          [-4.429352, 36.715813],
          [-4.428702, 36.71581],
          [-4.428345, 36.715797],
          [-4.427985, 36.715776],
          [-4.426653, 36.715691],
          [-4.42653, 36.715652],
          [-4.426505, 36.715636],
          [-4.426486, 36.715615],
          [-4.426468, 36.715577],
          [-4.426414, 36.715435],
          [-4.426408, 36.714395],
          [-4.426342, 36.711926],
          [-4.425708, 36.711928],
          [-4.425478, 36.711967],
          [-4.425199, 36.71211],
          [-4.423406, 36.713921],
          [-4.420062, 36.717327],
          [-4.419587, 36.717591],
          [-4.419319, 36.717676],
          [-4.416117, 36.718567],
          [-4.412573, 36.719536],
          [-4.412458, 36.719545],
          [-4.412369, 36.719534],
          [-4.412288, 36.719506],
          [-4.412232, 36.71945],
          [-4.412204, 36.719374],
          [-4.412223, 36.719128],
          [-4.412401, 36.717804],
          [-4.412435, 36.717677],
          [-4.412462, 36.71761],
          [-4.412512, 36.717504],
          [-4.412577, 36.717397],
          [-4.414454, 36.714396],
          [-4.41463, 36.714268],
          [-4.414674, 36.714189],
          [-4.414638, 36.713681],
          [-4.414564, 36.713454],
          [-4.413284, 36.710347],
          [-4.413246, 36.710221],
          [-4.413223, 36.71011],
          [-4.413189, 36.70995],
          [-4.413178, 36.709846],
          [-4.413174, 36.709682],
          [-4.413172, 36.709522],
          [-4.413187, 36.70938],
          [-4.413214, 36.709224],
          [-4.41325, 36.709102],
          [-4.413322, 36.708945],
          [-4.413432, 36.708748],
          [-4.413812, 36.708237],
          [-4.414485, 36.707414],
          [-4.414528, 36.70734],
          [-4.41456, 36.707271],
          [-4.414576, 36.707207],
          [-4.414586, 36.707113],
          [-4.414583, 36.707015],
          [-4.414554, 36.706905],
          [-4.414491, 36.706778],
          [-4.414429, 36.706669],
          [-4.413897, 36.705694],
          [-4.413861, 36.705544],
          [-4.413846, 36.705481],
          [-4.413817, 36.705435],
          [-4.413746, 36.705407],
          [-4.413683, 36.705404],
          [-4.413633, 36.705418],
          [-4.413584, 36.705451],
          [-4.413562, 36.705489],
          [-4.413558, 36.705537],
          [-4.413569, 36.705589],
          [-4.413611, 36.705625],
          [-4.413754, 36.705748],
          [-4.414201, 36.70648],
          [-4.414426, 36.706883],
          [-4.414444, 36.706965],
          [-4.414453, 36.707031],
          [-4.414442, 36.707121],
          [-4.414429, 36.707219],
          [-4.414407, 36.707311],
          [-4.414348, 36.707427],
          [-4.414282, 36.707508],
          [-4.414196, 36.70757],
          [-4.413903, 36.707697],
          [-4.413838, 36.707733],
          [-4.413821, 36.707789],
          [-4.413778, 36.707968],
          [-4.413345, 36.708728],
          [-4.413204, 36.708985],
          [-4.413141, 36.709154],
          [-4.413097, 36.709394],
          [-4.413082, 36.709601],
          [-4.413087, 36.709812],
          [-4.413102, 36.709981],
          [-4.413163, 36.710249],
          [-4.413299, 36.710663],
          [-4.414504, 36.713486],
          [-4.414551, 36.713677],
          [-4.414555, 36.713758],
          [-4.414544, 36.713831],
          [-4.41449, 36.713958],
          [-4.414424, 36.714117],
          [-4.414399, 36.714168],
          [-4.414365, 36.71431],
          [-4.414333, 36.714395],
          [-4.413873, 36.715116],
          [-4.413838, 36.715152],
          [-4.413749, 36.715181],
          [-4.413431, 36.715289],
          [-4.413187, 36.715378],
          [-4.412901, 36.715522],
          [-4.412529, 36.715779],
          [-4.411573, 36.716588],
          [-4.410989, 36.717101],
          [-4.409879, 36.718033],
          [-4.409793, 36.718087],
          [-4.409725, 36.71812],
          [-4.409648, 36.71815],
          [-4.409566, 36.718176],
          [-4.40938, 36.718208],
          [-4.409233, 36.718232],
          [-4.4089, 36.718338],
          [-4.408639, 36.718463],
          [-4.407344, 36.719268],
          [-4.407026, 36.719429],
          [-4.406896, 36.719493],
          [-4.406644, 36.7196],
          [-4.406005, 36.719881],
          [-4.405729, 36.720001],
          [-4.405525, 36.720072],
          [-4.405387, 36.720117],
          [-4.405236, 36.720167],
          [-4.405085, 36.720208],
          [-4.40472, 36.720296],
          [-4.404492, 36.720331],
          [-4.404216, 36.720374],
          [-4.403707, 36.720414],
          [-4.402993, 36.720519],
          [-4.402778, 36.720569],
          [-4.400277, 36.721378],
          [-4.398871, 36.72177],
          [-4.397255, 36.722213],
          [-4.395426, 36.722845],
          [-4.395187, 36.722913],
          [-4.395034, 36.72295],
          [-4.39493, 36.722969],
          [-4.394658, 36.723009],
          [-4.394489, 36.723021],
          [-4.394243, 36.723021],
          [-4.393986, 36.723026],
          [-4.393754, 36.723028],
          [-4.393351, 36.723024],
          [-4.393115, 36.722993],
          [-4.392887, 36.72295],
          [-4.392637, 36.722867],
          [-4.391839, 36.722593],
          [-4.391657, 36.722547],
          [-4.391536, 36.722526],
          [-4.391247, 36.722506],
          [-4.388195, 36.722214],
          [-4.388008, 36.722188],
          [-4.387823, 36.722159],
          [-4.387683, 36.722115],
          [-4.387272, 36.72194],
          [-4.386177, 36.72149],
          [-4.385958, 36.721432],
          [-4.385736, 36.721401],
          [-4.385547, 36.721392],
          [-4.383438, 36.7215],
          [-4.381655, 36.72148],
          [-4.380437, 36.721438],
          [-4.379882, 36.721427],
          [-4.378419, 36.72153],
          [-4.37743, 36.721586],
          [-4.375846, 36.721588],
          [-4.374806, 36.72153],
          [-4.37352, 36.721448],
          [-4.373012, 36.721374],
          [-4.372833, 36.721337],
          [-4.371239, 36.720931],
          [-4.369925, 36.720509],
          [-4.368766, 36.720158],
          [-4.368607, 36.720122],
          [-4.368407, 36.720092],
          [-4.366028, 36.719908],
          [-4.3624, 36.719636],
          [-4.359212, 36.719331],
          [-4.356971, 36.719022],
          [-4.356338, 36.718891],
          [-4.355819, 36.71876],
          [-4.355408, 36.718641],
          [-4.354383, 36.718359],
          [-4.353692, 36.71818],
          [-4.352941, 36.718033],
          [-4.352535, 36.717991],
          [-4.352485, 36.718005],
          [-4.352453, 36.718034],
          [-4.352059, 36.718882],
          [-4.351628, 36.719594],
          [-4.351618, 36.719619],
          [-4.35162, 36.719639],
          [-4.351628, 36.719656],
          [-4.35165, 36.71968],
          [-4.351721, 36.719719],
          [-4.352211, 36.719948],
          [-4.352336, 36.720002],
          [-4.352462, 36.72005],
          [-4.352566, 36.720081],
          [-4.352661, 36.720104],
          [-4.352753, 36.720119],
          [-4.35283, 36.720128],
          [-4.353037, 36.720136],
          [-4.353647, 36.720203],
          [-4.354256, 36.720291],
          [-4.354782, 36.720372],
          [-4.355325, 36.720435],
          [-4.356021, 36.720541],
          [-4.356317, 36.720585],
          [-4.356683, 36.720661],
          [-4.357249, 36.720781],
          [-4.357414, 36.720814],
          [-4.357654, 36.720839],
          [-4.35801, 36.72086],
          [-4.358466, 36.720908],
          [-4.35876, 36.720938],
          [-4.359084, 36.720981],
          [-4.359347, 36.721015],
          [-4.359531, 36.721032],
          [-4.359971, 36.72107],
          [-4.360365, 36.721087],
          [-4.360728, 36.721101],
          [-4.361296, 36.721114],
          [-4.36162, 36.721145],
          [-4.361951, 36.721191],
          [-4.362397, 36.721288],
          [-4.362682, 36.721368],
          [-4.363039, 36.721489],
          [-4.363512, 36.721655],
          [-4.363824, 36.721758],
          [-4.36421, 36.721853],
          [-4.364578, 36.721954],
          [-4.365026, 36.72204],
          [-4.36542, 36.722109],
          [-4.366018, 36.722215],
          [-4.366415, 36.722269],
          [-4.366942, 36.722335],
          [-4.367271, 36.722371],
          [-4.367656, 36.722387],
          [-4.369018, 36.722391],
          [-4.369767, 36.722384],
          [-4.371579, 36.722382],
          [-4.372423, 36.722405],
          [-4.373726, 36.722381],
          [-4.374426, 36.722382],
          [-4.374784, 36.722364],
          [-4.375248, 36.72235],
          [-4.376379, 36.722302],
          [-4.376991, 36.72227],
          [-4.377413, 36.722243],
          [-4.377799, 36.722195],
          [-4.378894, 36.722044],
          [-4.379958, 36.721898],
          [-4.380343, 36.721848],
          [-4.380788, 36.721786],
          [-4.380993, 36.721775],
          [-4.381302, 36.721788],
          [-4.381954, 36.721857],
          [-4.382628, 36.721942],
          [-4.382845, 36.721949],
          [-4.383034, 36.721947],
          [-4.383185, 36.721948],
          [-4.383315, 36.721932],
          [-4.383503, 36.72191],
          [-4.383775, 36.721863],
          [-4.383994, 36.721818],
          [-4.384511, 36.721653],
          [-4.384876, 36.72155],
          [-4.384984, 36.721521],
          [-4.385449, 36.721493],
          [-4.385698, 36.721501],
          [-4.385813, 36.721516],
          [-4.385922, 36.721532],
          [-4.386013, 36.721554],
          [-4.38612, 36.721583],
          [-4.386262, 36.721621],
          [-4.387271, 36.722047],
          [-4.387637, 36.722185],
          [-4.387728, 36.722221],
          [-4.387773, 36.722231],
          [-4.387861, 36.722259],
          [-4.387933, 36.72227],
          [-4.387994, 36.722287],
          [-4.388118, 36.722306],
          [-4.388717, 36.722364],
          [-4.390264, 36.722483],
          [-4.391491, 36.722605],
          [-4.391582, 36.722618],
          [-4.391687, 36.722641],
          [-4.391804, 36.722675],
          [-4.391914, 36.722712],
          [-4.392588, 36.722959],
          [-4.392682, 36.722993],
          [-4.3928, 36.723028],
          [-4.392902, 36.723058],
          [-4.392977, 36.723071],
          [-4.39306, 36.723085],
          [-4.393237, 36.723105],
          [-4.393431, 36.723111],
          [-4.394582, 36.723093],
          [-4.394783, 36.723075],
          [-4.394892, 36.72306],
          [-4.395002, 36.723041],
          [-4.395133, 36.723013],
          [-4.39524, 36.722987],
          [-4.395426, 36.722929],
          [-4.396391, 36.722578],
          [-4.398151, 36.722044],
          [-4.39929, 36.721776],
          [-4.400834, 36.721283],
          [-4.402079, 36.720853],
          [-4.402733, 36.720668],
          [-4.402867, 36.720626],
          [-4.403003, 36.720592],
          [-4.403211, 36.720563],
          [-4.404416, 36.720434],
          [-4.404687, 36.720396],
          [-4.405108, 36.720308],
          [-4.405324, 36.720244],
          [-4.405622, 36.720143],
          [-4.406047, 36.719949],
          [-4.40668, 36.719669],
          [-4.407196, 36.719436],
          [-4.407525, 36.719246],
          [-4.408049, 36.71891],
          [-4.408626, 36.71853],
          [-4.408965, 36.718409],
          [-4.409133, 36.718368],
          [-4.409402, 36.718332],
          [-4.409607, 36.71834],
          [-4.409774, 36.718372],
          [-4.409902, 36.718408],
          [-4.410044, 36.718465],
          [-4.410141, 36.718515],
          [-4.410317, 36.718633],
          [-4.410515, 36.718802],
          [-4.410768, 36.719018],
          [-4.41108, 36.719291],
          [-4.411437, 36.719549],
          [-4.411668, 36.719673],
          [-4.411667, 36.719671],
          [-4.4118, 36.719697],
          [-4.412019, 36.719704],
          [-4.41225, 36.71969],
          [-4.412467, 36.71966],
          [-4.419525, 36.7178],
          [-4.419573, 36.717797],
          [-4.419614, 36.717811],
          [-4.419672, 36.717868],
          [-4.419852, 36.718245],
          [-4.419905, 36.71828],
          [-4.419952, 36.718281],
          [-4.419992, 36.718274],
          [-4.421176, 36.718017],
          [-4.425127, 36.717031],
          [-4.426592, 36.716882],
          [-4.426681, 36.716886],
          [-4.426762, 36.716898],
          [-4.42688, 36.716933],
          [-4.427038, 36.717002],
          [-4.42712, 36.717081],
          [-4.427149, 36.717127],
          [-4.427164, 36.717183],
          [-4.427155, 36.717756],
          [-4.427172, 36.717801],
          [-4.427215, 36.717828],
          [-4.428513, 36.717955],
          [-4.429099, 36.71801],
          [-4.429195, 36.718029],
          [-4.429251, 36.718056],
          [-4.429284, 36.718079],
          [-4.429331, 36.718134],
          [-4.429351, 36.718194],
          [-4.429341, 36.718441],
          [-4.429196, 36.71981],
          [-4.429035, 36.721273],
          [-4.42901, 36.72218],
          [-4.42899, 36.722577],
          [-4.428929, 36.723115],
          [-4.428905, 36.723374],
          [-4.428907, 36.723488],
          [-4.428899, 36.723625],
          [-4.428885, 36.724082],
          [-4.428863, 36.724379],
          [-4.428852, 36.724547],
          [-4.428833, 36.724904],
          [-4.428807, 36.725356],
          [-4.428767, 36.725791],
          [-4.428755, 36.72594],
          [-4.428719, 36.726467],
          [-4.428695, 36.726805],
          [-4.428667, 36.726985],
          [-4.428638, 36.727298],
          [-4.428634, 36.727495],
          [-4.428593, 36.727852],
          [-4.428565, 36.728118],
          [-4.428529, 36.728674],
          [-4.428482, 36.729182],
          [-4.428427, 36.729701],
          [-4.428396, 36.730099],
          [-4.428359, 36.730535],
          [-4.42832, 36.731117],
          [-4.428283, 36.731917],
          [-4.428264, 36.732317],
          [-4.428175, 36.732483],
          [-4.428137, 36.732521],
          [-4.4281, 36.732552],
          [-4.428035, 36.732594],
          [-4.427484, 36.732707],
          [-4.427399, 36.732734],
          [-4.427325, 36.732772],
          [-4.427289, 36.732803],
          [-4.42726, 36.732833],
          [-4.427235, 36.73293],
          [-4.427233, 36.732978],
          [-4.427242, 36.733017],
          [-4.427395, 36.733341],
          [-4.427408, 36.733383],
          [-4.427415, 36.73342],
          [-4.427419, 36.73346],
          [-4.427417, 36.733521],
          [-4.427268, 36.735406],
          [-4.427134, 36.736771],
          [-4.427087, 36.737189],
          [-4.427082, 36.73721],
          [-4.427071, 36.737229],
          [-4.427053, 36.737243],
          [-4.427028, 36.737257],
          [-4.426697, 36.737451],
          [-4.426659, 36.737466],
          [-4.426624, 36.737476],
          [-4.426585, 36.737478],
          [-4.426544, 36.737475],
          [-4.426453, 36.737473],
          [-4.425824, 36.737454],
          [-4.425031, 36.73742],
          [-4.424975, 36.737416],
          [-4.424926, 36.737409],
          [-4.424888, 36.737397],
          [-4.424854, 36.737375],
          [-4.424838, 36.737357],
          [-4.42482, 36.737331],
          [-4.424813, 36.737307],
          [-4.424812, 36.737288],
          [-4.424812, 36.737276],
          [-4.42507, 36.734037],
          [-4.425199, 36.733067],
          [-4.425212, 36.733037],
          [-4.42523, 36.733017],
          [-4.425256, 36.733],
          [-4.425271, 36.732994],
          [-4.426001, 36.732979],
          [-4.426154, 36.732971],
          [-4.426255, 36.732961],
          [-4.426358, 36.732944],
          [-4.426418, 36.73292],
          [-4.426472, 36.732898],
          [-4.426498, 36.732876],
          [-4.426622, 36.732754],
          [-4.42664, 36.732704],
          [-4.426655, 36.732647],
          [-4.426664, 36.7326],
          [-4.426669, 36.732537],
          [-4.426738, 36.731861],
          [-4.42689, 36.729995],
          [-4.427001, 36.728473],
          [-4.426971, 36.727999],
          [-4.426926, 36.727357],
          [-4.426857, 36.726993],
          [-4.426708, 36.726247],
          [-4.426536, 36.725561],
          [-4.426431, 36.725073],
          [-4.426333, 36.724635],
          [-4.426215, 36.724056],
          [-4.42614, 36.723572],
          [-4.42605, 36.723028],
          [-4.425904, 36.722371],
          [-4.425831, 36.721846],
          [-4.425818, 36.721655],
          [-4.425786, 36.721451],
          [-4.425722, 36.721112],
          [-4.425685, 36.720874],
          [-4.425666, 36.720503],
          [-4.425688, 36.720098],
          [-4.425732, 36.719702],
          [-4.425825, 36.719283],
          [-4.426003, 36.718741],
          [-4.426096, 36.718452],
          [-4.426193, 36.718166],
          [-4.426212, 36.717707],
          [-4.426235, 36.717052],
          [-4.426286, 36.716376],
          [-4.426342, 36.715858],
          [-4.426374, 36.715202],
          [-4.426396, 36.714309],
          [-4.426401, 36.712156],
          [-4.426388, 36.711035],
          [-4.427846, 36.709628],
          [-4.429121, 36.708143],
          [-4.430748, 36.706287],
          [-4.432751, 36.7038],
          [-4.433436, 36.702881],
          [-4.433983, 36.702116],
          [-4.434179, 36.701887],
          [-4.43442, 36.701685],
          [-4.435031, 36.701248],
          [-4.435862, 36.70062],
          [-4.43629, 36.700178],
          [-4.437944, 36.69792],
          [-4.44047, 36.694418],
          [-4.440673, 36.694238],
          [-4.440762, 36.693962],
          [-4.441587, 36.692563],
          [-4.443211, 36.689823],
          [-4.443429, 36.689603],
          [-4.443508, 36.689312],
          [-4.444392, 36.687804],
          [-4.446358, 36.684497],
          [-4.446564, 36.68428],
          [-4.446643, 36.684015],
          [-4.448218, 36.681344],
          [-4.448602, 36.680689],
          [-4.448931, 36.680587],
          [-4.45348, 36.682236],
          [-4.453896, 36.682065],
          [-4.454354, 36.681441],
          [-4.454373, 36.681424],
          [-4.454396, 36.681413],
          [-4.454421, 36.681409],
          [-4.454442, 36.681409],
          [-4.45451, 36.681419],
          [-4.454882, 36.681512],
          [-4.455521, 36.681735],
          [-4.457169, 36.682368],
          [-4.458806, 36.683093],
          [-4.458827, 36.683115],
          [-4.458838, 36.683138],
          [-4.45884, 36.683161],
          [-4.458834, 36.683185],
          [-4.457697, 36.685054],
          [-4.457655, 36.685231],
          [-4.457568, 36.685996],
          [-4.457576, 36.686014],
          [-4.457588, 36.686027],
          [-4.457628, 36.686045],
          [-4.457885, 36.686142],
          [-4.457909, 36.686147],
          [-4.457927, 36.686147],
          [-4.457944, 36.686137],
          [-4.457956, 36.686122],
          [-4.45857, 36.685191],
          [-4.459084, 36.684217],
          [-4.459479, 36.683558],
          [-4.459545, 36.683464],
          [-4.459623, 36.6834],
          [-4.459693, 36.683369],
          [-4.459769, 36.68334],
          [-4.459863, 36.683324],
          [-4.459952, 36.683325],
          [-4.46035, 36.683385],
          [-4.460452, 36.683396],
          [-4.460547, 36.683398],
          [-4.460658, 36.68339],
          [-4.460744, 36.683383],
          [-4.460841, 36.683358],
          [-4.460954, 36.68333],
          [-4.461007, 36.683307],
          [-4.461069, 36.683282],
          [-4.461179, 36.683224],
          [-4.461281, 36.683156],
          [-4.461348, 36.683101],
          [-4.461464, 36.682972],
          [-4.46152, 36.682892],
          [-4.461567, 36.6828],
          [-4.461595, 36.682721],
          [-4.461615, 36.68265],
          [-4.461624, 36.682553],
          [-4.461619, 36.682412],
          [-4.461601, 36.682327],
          [-4.461567, 36.68223],
          [-4.461523, 36.682145],
          [-4.46142, 36.681996],
          [-4.461304, 36.681896],
          [-4.461158, 36.681792],
          [-4.461038, 36.681736],
          [-4.460044, 36.681351],
          [-4.460027, 36.681351],
          [-4.460012, 36.681357],
          [-4.459996, 36.681364],
          [-4.459985, 36.681374],
          [-4.459489, 36.68207],
          [-4.459252, 36.682128],
          [-4.458441, 36.681803],
          [-4.458035, 36.681869],
          [-4.457961, 36.681879],
          [-4.457916, 36.681882],
          [-4.457877, 36.681881],
          [-4.457823, 36.681874],
          [-4.45777, 36.681861],
          [-4.457721, 36.681844],
          [-4.457677, 36.681823],
          [-4.457629, 36.681792],
          [-4.457591, 36.681757],
          [-4.457566, 36.681731],
          [-4.457546, 36.681705],
          [-4.457528, 36.681673],
          [-4.457514, 36.681643],
          [-4.457502, 36.681604],
          [-4.457496, 36.681556],
          [-4.457491, 36.681196],
          [-4.457484, 36.680775],
          [-4.457488, 36.680744],
          [-4.457495, 36.680715],
          [-4.457505, 36.680686],
          [-4.457517, 36.680658],
          [-4.457536, 36.680626],
          [-4.45756, 36.680596],
          [-4.457587, 36.680569],
          [-4.457614, 36.680547],
          [-4.457643, 36.680526],
          [-4.457675, 36.680508],
          [-4.457709, 36.680493],
          [-4.457748, 36.680479],
          [-4.457828, 36.680461],
          [-4.457911, 36.680455],
          [-4.458408, 36.680501],
          [-4.458765, 36.680364],
          [-4.45938, 36.680019],
          [-4.45939, 36.679994],
          [-4.45937, 36.679971],
          [-4.459321, 36.679958],
          [-4.458243, 36.679859],
          [-4.457432, 36.679775],
          [-4.456622, 36.679669],
          [-4.455575, 36.679511],
          [-4.454202, 36.679249],
          [-4.453429, 36.679092],
          [-4.453163, 36.679037],
          [-4.452904, 36.678996],
          [-4.4526, 36.678968],
          [-4.452299, 36.678951],
          [-4.4521, 36.678952],
          [-4.451701, 36.678975],
          [-4.451196, 36.679034],
          [-4.450743, 36.679143],
          [-4.4504, 36.679252],
          [-4.450019, 36.679357],
          [-4.449575, 36.679606],
          [-4.449339, 36.679769],
          [-4.44904, 36.68],
          [-4.448831, 36.680237],
          [-4.448687, 36.680425],
          [-4.448491, 36.680703],
          [-4.448322, 36.680982],
          [-4.44797, 36.681593],
          [-4.447522, 36.682342],
          [-4.446995, 36.683233],
          [-4.446083, 36.684739],
          [-4.444495, 36.687418],
          [-4.443055, 36.689855],
          [-4.441654, 36.692228],
          [-4.440311, 36.694447],
          [-4.438617, 36.696796],
          [-4.436614, 36.699536],
          [-4.436361, 36.699836],
          [-4.436154, 36.70007],
          [-4.435844, 36.700361],
          [-4.4355, 36.700667],
          [-4.434604, 36.701418],
          [-4.434156, 36.701821],
          [-4.433954, 36.702008],
          [-4.433789, 36.702201],
          [-4.43369, 36.702316],
          [-4.432978, 36.703292],
          [-4.431263, 36.705482],
          [-4.430439, 36.706454],
          [-4.429247, 36.707747],
          [-4.429107, 36.707865],
          [-4.426889, 36.710208],
          [-4.425128, 36.712027],
          [-4.42455, 36.712764],
          [-4.424526, 36.712788],
          [-4.424523, 36.712836],
          [-4.424529, 36.712902],
          [-4.424554, 36.712964],
          [-4.42465, 36.713155],
          [-4.424843, 36.713519],
          [-4.424978, 36.713787],
          [-4.425159, 36.714128],
          [-4.425328, 36.714484],
          [-4.425576, 36.714989],
          [-4.425623, 36.715128],
          [-4.425647, 36.715233],
          [-4.425667, 36.715334],
          [-4.42568, 36.715518],
          [-4.4257, 36.715678],
          [-4.425703, 36.71573],
          [-4.425635, 36.716616],
          [-4.425484, 36.717921],
          [-4.425461, 36.718221],
          [-4.425409, 36.718512],
          [-4.425056, 36.72026],
          [-4.425047, 36.720589],
          [-4.425036, 36.720611],
          [-4.425005, 36.720625],
          [-4.424949, 36.720636],
          [-4.424263, 36.72073],
          [-4.424016, 36.720782],
          [-4.42372, 36.720861],
          [-4.423625, 36.720892],
          [-4.42335, 36.720922],
          [-4.42281, 36.720906],
          [-4.422362, 36.720906],
          [-4.421823, 36.720919],
          [-4.421782, 36.720918],
          [-4.421747, 36.720912],
          [-4.421726, 36.720899],
          [-4.421712, 36.720867],
          [-4.421461, 36.718508],
          [-4.421106, 36.718123],
          [-4.42108, 36.718108],
          [-4.421044, 36.718106],
          [-4.415972, 36.719543]
        ]
      }
    }
  ]
}
