{
  "type": "FeatureCollection",
  "features": [
    {
      "type": "Feature",
      "properties": {
        "id": "start",
        "label": "Start - Avenida de Concha Espina",
        "kind": "split",
        "distanceKm": 0
      },
      "geometry": {
        "type": "Point",
        "coordinates": [-3.6844001, 40.4517912]
      }
    },
    {
      "type": "Feature",
      "properties": {
        "id": "km-1",
        "label": "1K split - Calle de Joaquín Costa",
        "kind": "split",
        "distanceKm": 1
      },
      "geometry": {
        "type": "Point",
        "coordinates": [-3.6856762, 40.4454033]
      }
    },
    {
      "type": "Feature",
      "properties": {
        "id": "km-2",
        "label": "2K split - Calle de Serrano",
        "kind": "split",
        "distanceKm": 2
      },
      "geometry": {
        "type": "Point",
        "coordinates": [-3.6863563, 40.4369459]
      }
    },
    {
      "type": "Feature",
      "properties": {
        "id": "cheer-corte-ingles",
        "label": "Cheer point - Calle de Serrano (El Corte Inglés)",
        "kind": "cheer-point",
        "distanceKm": 2.7
      },
      "geometry": {
        "type": "Point",
        "coordinates": [-3.6869541, 40.4302759]
      }
    },
    {
      "type": "Feature",
      "properties": {
        "id": "km-3",
        "label": "3K split - Calle de Serrano",
        "kind": "split",
        "distanceKm": 3
      },
      "geometry": {
        "type": "Point",
        "coordinates": [-3.6873211, 40.4281957]
      }
    },
    {
      "type": "Feature",
      "properties": {
        "id": "cheer-alcala",
        "label": "Cheer point - Puerta de Alcalá",
        "kind": "cheer-point",
        "distanceKm": 3.9
      },
      "geometry": {
        "type": "Point",
        "coordinates": [-3.6887884, 40.420333]
      }
    },
    {
      "type": "Feature",
      "properties": {
        "id": "km-4",
        "label": "4K split - Calle de Alcalá",
        "kind": "split",
        "distanceKm": 4
      },
      "geometry": {
        "type": "Point",
        "coordinates": [-3.689907, 40.4197096]
      }
    },
    {
      "type": "Feature",
      "properties": {
        "id": "km-5",
        "label": "5K split - Paseo del Prado",
        "kind": "split",
        "distanceKm": 5
      },
      "geometry": {
        "type": "Point",
        "coordinates": [-3.692925, 40.4126199]
      }
    },
    {
      "type": "Feature",
      "properties": {
        "id": "cheer-nationale-nederlanden-1",
        "label": "Cheer point - Avenida de la Ciudad de Barcelona (Atocha)",
        "kind": "cheer-point",
        "distanceKm": 5.5
      },
      "geometry": {
        "type": "Point",
        "coordinates": [-3.6914862, 40.4083484]
      }
    },
    {
      "type": "Feature",
      "properties": {
        "id": "km-6",
        "label": "6K split - Avenida de la Ciudad de Barcelona",
        "kind": "split",
        "distanceKm": 6
      },
      "geometry": {
        "type": "Point",
        "coordinates": [-3.6870933, 40.4060864]
      }
    },
    {
      "type": "Feature",
      "properties": {
        "id": "km-7",
        "label": "7K split - Avenida de la Ciudad de Barcelona",
        "kind": "split",
        "distanceKm": 7
      },
      "geometry": {
        "type": "Point",
        "coordinates": [-3.6763161, 40.4020336]
      }
    },
    {
      "type": "Feature",
      "properties": {
        "id": "cheer-sanicentro",
        "label": "Cheer point - Avenida de la Ciudad de Barcelona",
        "kind": "cheer-point",
        "distanceKm": 7.1
      },
      "geometry": {
        "type": "Point",
        "coordinates": [-3.6748783, 40.4012222]
      }
    },
    {
      "type": "Feature",
      "properties": {
        "id": "cheer-nationale-nederlanden-2",
        "label": "Cheer point - Avenida de la Albufera (Puente de Vallecas)",
        "kind": "cheer-point",
        "distanceKm": 7.7
      },
      "geometry": {
        "type": "Point",
        "coordinates": [-3.6689603, 40.3981632]
      }
    },
    {
      "type": "Feature",
      "properties": {
        "id": "km-8",
        "label": "8K split - Avenida de la Albufera",
        "kind": "split",
        "distanceKm": 8
      },
      "geometry": {
        "type": "Point",
        "coordinates": [-3.6665959, 40.396882]
      }
    },
    {
      "type": "Feature",
      "properties": {
        "id": "cheer-juver",
        "label": "Cheer point - Calle Sierra de Cadí",
        "kind": "cheer-point",
        "distanceKm": 8.7
      },
      "geometry": {
        "type": "Point",
        "coordinates": [-3.6602219, 40.3932979]
      }
    },
    {
      "type": "Feature",
      "properties": {
        "id": "km-9",
        "label": "9K split - Calle de Carlos Martín Álvarez",
        "kind": "split",
        "distanceKm": 9
      },
      "geometry": {
        "type": "Point",
        "coordinates": [-3.6623468, 40.3908862]
      }
    },
    {
      "type": "Feature",
      "properties": {
        "id": "finish",
        "label": "Finish - Estadio de Vallecas",
        "kind": "split",
        "distanceKm": 10
      },
      "geometry": {
        "type": "Point",
        "coordinates": [-3.6627496, 40.3833628]
      }
    }
  ]
}
