{
  "type": "FeatureCollection",
  "features": [
    {
      "type": "Feature",
      "properties": {
        "id": "san-silvestre-vallecana-10k-2026-route",
        "name": "Nationale-Nederlanden San Silvestre Vallecana 2026 route"
      },
      "geometry": {
        "type": "LineString",
        "coordinates": [
          [-3.6844298, 40.4517926],
          [-3.681407, 40.4516498],
          [-3.6835527, 40.4483106],
          [-3.6856127, 40.4454447],
          [-3.6859131, 40.4452488],
          [-3.6858487, 40.4450202],
          [-3.6856127, 40.4445956],
          [-3.6865461, 40.4349928],
          [-3.6870074, 40.4296601],
          [-3.6874902, 40.427406],
          [-3.6878657, 40.4251601],
          [-3.688767, 40.420529],
          [-3.6887884, 40.420333],
          [-3.689121, 40.4201043],
          [-3.689239, 40.4198021],
          [-3.6927795, 40.419312],
          [-3.69367, 40.4161509],
          [-3.6936486, 40.4156362],
          [-3.6931765, 40.4137411],
          [-3.6923611, 40.4101059],
          [-3.69205, 40.4093952],
          [-3.6916637, 40.4087825],
          [-3.6916637, 40.4084476],
          [-3.6908591, 40.4079982],
          [-3.6894321, 40.4069444],
          [-3.6874044, 40.4061764],
          [-3.6843252, 40.4052859],
          [-3.6812353, 40.4043546],
          [-3.6785102, 40.4031291],
          [-3.6762357, 40.4019934],
          [-3.6749804, 40.4012744],
          [-3.6700881, 40.3987743],
          [-3.6662579, 40.3966989],
          [-3.6629105, 40.3950076],
          [-3.6600351, 40.3935041],
          [-3.6605608, 40.3929239],
          [-3.6632538, 40.3898514],
          [-3.6641765, 40.3886093],
          [-3.6644554, 40.3882089],
          [-3.6640048, 40.3861006],
          [-3.6635435, 40.3834936],
          [-3.6632377, 40.3827131],
          [-3.6628782, 40.3831749],
          [-3.6627496, 40.3833628]
        ]
      }
    }
  ]
}
